Organisation Name,NACS Code,Organisation Type,Address1,Address2,Address3,Address4,Address5,PostCode,Telephone Number,NHS#UK users rating,Banding Classification  (NHS#UK users rating),Organisation Code,Trust Code
Accrington Victoria Hospital,RXR60,HOS,Accrington Victoria Community Hospital,Haywood Road,NULL,Accrington,Lancashire,BB5 6AS,1254359003,4.5 out of 5 - 41 ratings,4.5,RXR60,RXR
Addenbrooke's,RGT01,HOS,NULL,Hills Road,NULL,Cambridge,Cambridgeshire,CB2 0QQ,1223245151,4.0 out of 5 - 174 ratings,4,RGT01,RGT
Aintree University Hospital,REM21,HOS,Aintree University Hospital,Lower Lane,NULL,Liverpool,Merseyside,L9 7AL,1515255980,4.5 out of 5 - 151 ratings,4.5,REM21,REM
Airedale General Hospital,RCF22,HOS,Skipton Road,Steeton,NULL,Keighley,West Yorkshire,BD20 6TD,1535652511,4.5 out of 5 - 168 ratings,4.5,RCF22,RCF
Alder Hey Children's NHS Foundation Trust,RBS25,HOS,Alder Hey Children's Hospital,Eaton Road,NULL,Liverpool,NULL,L12 2AP,1512284811,4.0 out of 5 - 33 ratings,4,RBS25,RBS
Alexandra Hospital,RWP01,HOS,Woodrow Drive,NULL,NULL,Redditch,Worcestershire,B98 7UB,1527503030,4.5 out of 5 - 72 ratings,4.5,RWP01,RWP
Amersham Hospital,RXQ51,HOS,Amersham Hospital,Whielden Street,NULL,Amersham,Buckinghamshire,HP7 0JD,1494434411,3.5 out of 5 - 14 ratings,3.5,RXQ51,RXQ
Andover War Memorial Hospital,RN542,HOS,NULL,Charlton Road,NULL,Andover,Hampshire,SP10 3LB,1264358811,4.0 out of 5 - 22 ratings,4,RN542,RN5
Arrowe Park Hospital,RBL14,HOS,Arrowe Park Road,NULL,Upton,Wirral,Merseyside,CH49 5PE,1516785111,4.5 out of 5 - 177 ratings,4.5,RBL14,RBL
Ash Green,RY8AK,HOS,Ashgate Road,Ashgate,NULL,Chesterfield,Derbyshire,S42 7JE,1246565000,5.0 out of 5 - 3 ratings,5,RY8AK,RY8
Ashford Hospital,RTK02,HOS,London Road,NULL,NULL,Ashford,Middlesex,TW15 3AA,1784884488,4.5 out of 5 - 53 ratings,4.5,RTK02,RTK
Ashtead Hospital,NVC01,HOS,The Warren,NULL,NULL,Ashtead,Surrey,KT21 2SB,1372221400,4.0 out of 5 - 10 ratings,4,NVC01,NVC
Aspen - The Holly Private Hospital,NYW01,HOS,NULL,High Road,NULL,Buckhurst Hill,Essex,IG9 5HX,2085053311,3.0 out of 5 - 17 ratings,3,NYW01,NYW
Axminster Hospital,RH857,HOS,Chard Street,NULL,NULL,Axminster,Devon,EX13 5DU,1297630400,5.0 out of 5 - 8 ratings,5,RH857,RH8
Babington Hospital,RY8DE,HOS,Babington Hospital,Derby Road,Belper,Derby,Derbyshire,DE56 1WH,1773824171,3.5 out of 5 - 3 ratings,3.5,RY8DE,RY8
Barnet Hospital,RAL26,HOS,Wellhouse Lane,NULL,NULL,Barnet,Hertfordshire,EN5 3DJ,2082164600,3.5 out of 5 - 285 ratings,3.5,RAL26,RAL
Barnsley Hospital,RFFAA,HOS,NULL,NULL,Gawber Road,Barnsley,Yorkshire,S75 2EP,1226730000,4.5 out of 5 - 196 ratings,4.5,RFFAA,RFF
Basildon University Hospital,RDDH0,HOS,Nethermayne,NULL,NULL,Basildon,Essex,SS16 5NL,1268524900,4.0 out of 5 - 481 ratings,4,RDDH0,RDD
Basingstoke and North Hampshire Hospital,RN506,HOS,NULL,Aldermaston Road,NULL,Basingstoke,Hampshire,RG24 9NA,1256473202,4.0 out of 5 - 79 ratings,4,RN506,RN5
Bassetlaw Hospital,RP5BA,HOS,Kilton Hill,Blyth Road,NULL,Worksop,Nottinghamshire,S81 0BD,1909500990,4.5 out of 5 - 55 ratings,4.5,RP5BA,RP5
Bedford Hospital South Wing,RC110,HOS,South Wing,Kempston Road,NULL,Bedford,Bedfordshire,MK42 9DJ,1234355122,4.5 out of 5 - 195 ratings,4.5,RC110,RC1
Benenden Hospital,NWF01,HOS,Goddards Green Road,Benenden,NULL,Cranbrook,Kent,TN17 4AX,1580240333,5.0 out of 5 - 22 ratings,5,NWF01,NWF
Bexhill Hospital,RXC03,HOS,NULL,Holliers Hill,NULL,Bexhill-on-Sea,Sussex,TN40 2DZ,1424755255,4.5 out of 5 - 6 ratings,4.5,RXC03,RXC
Bideford Hospital,RBZ95,HOS,NULL,Abbotsham Road,NULL,Bideford,Devon,EX39 3AG,1271322577,4.0 out of 5 - 18 ratings,4,RBZ95,RBZ
Birmingham Children's Hospital,RQ301,HOS,NULL,Steelhouse Lane,NULL,Birmingham,NULL,B4 6NH,1213339999,3.5 out of 5 - 17 ratings,3.5,RQ301,RQ3
Birmingham Women's Hospital,RQ370,HOS,Mindelsohn Way,Edgbaston,NULL,Birmingham,West Midlands,B15 2TG,NULL,2.0 out of 5 - 1 rating,2,RQ370,RQ3
Bishop Auckland Hospital,RXPBA,HOS,Cockton Hill Road,NULL,NULL,Bishop Auckland,County Durham,DL14 6AD,1388455000,4.5 out of 5 - 78 ratings,4.5,RXPBA,RXP
Bishop's Castle Community Hospital,R1D25,HOS,Union Street,NULL,NULL,Bishop's Castle,Shropshire,SY9 5AJ,1588638220,1.0 out of 5 - 1 rating,1,R1D25,R1D
Blackpool Victoria Hospital,RXL01,HOS,Whinney Heys Road,NULL,NULL,Blackpool,Lancashire,FY3 8NR,1253300000,4.0 out of 5 - 205 ratings,4,RXL01,RXL
Blakelands Hospital,NVC31,HOS,Smeaton Close,Blakelands,NULL,Milton Keynes,Buckinghamshire,MK14 5HR,1908334200,4.5 out of 5 - 50 ratings,4.5,NVC31,NVC
Blyth Community Hospital,RTFDX,HOS,Thoroton Street,NULL,NULL,Blyth,Northumberland,NE24 1DX,3448118111,5.0 out of 5 - 3 ratings,5,RTFDX,RTF
BMI Bath Clinic,NT402,HOS,The Bath Clinic,Claverton Down Road,Combe Down,Bath,Avon,BA2 7BR,1225835555,5.0 out of 5 - 7 ratings,5,NT402,NT4
BMI Bury St Edmunds Hospital,NT446,HOS,NULL,St. Marys Square,NULL,Bury St. Edmunds,Suffolk,IP33 2AA,1284701371,5.0 out of 5 - 2 ratings,5,NT446,NT4
BMI Chelsfield Park Hospital,NT409,HOS,NULL,Bucks Cross Road,Chelsfield,Orpington,Kent,BR6 7RG,1689877855,5.0 out of 5 - 4 ratings,5,NT409,NT4
BMI Fawkham Manor Hospital,NT414,HOS,Manor Lane,Fawkham,NULL,Longfield,Kent,DA3 8ND,1474879900,2.0 out of 5 - 5 ratings,2,NT414,NT4
BMI Gisburne Park Hospital,NT497,HOS,Gisburn Park Estate,Gisburn,NULL,Clitheroe,Lancashire,BB7 4HX,1200445693,4.0 out of 5 - 4 ratings,4,NT497,NT4
BMI Goring Hall Hospital,NT417,HOS,Bodiam Avenue,Goring-By-Sea,NULL,Worthing,West Sussex,BN12 5AT,1903506699,4.0 out of 5 - 33 ratings,4,NT417,NT4
BMI Hendon Hospital,NT416,HOS,BMI Hendon Hospital,46-50 Sunny Gardens Road,Hendon,London,NULL,NW4 1RP,2084574500,5.0 out of 5 - 1 rating,5,NT416,NT4
BMI Sarum Road Hospital,NT433,HOS,NULL,Sarum Road,NULL,Winchester,Hampshire,SO22 5HA,1962844555,4.5 out of 5 - 5 ratings,4.5,NT433,NT4
BMI Shirley Oaks Hospital,NT436,HOS,NULL,Poppy Lane,NULL,Croydon,Surrey,CR9 8AB,2086555500,2.5 out of 5 - 7 ratings,2.5,NT436,NT4
BMI Southend Private Hospital,NT490,HOS,NULL,15-17 Fairfax Drive,NULL,NULL,NULL,SS0 9AG,NULL,5.0 out of 5 - 1 rating,5,NT490,NT4
BMI The Alexandra Hospital,NT401,HOS,The Alexandra Hospital,Mill Lane,NULL,Cheadle,Cheshire,SK8 2PX,1614283656,4.5 out of 5 - 20 ratings,4.5,NT401,NT4
BMI The Beardwood Hospital,NT403,HOS,NULL,Preston New Road,NULL,Blackburn,Lancashire,BB2 7AE,1254507607,2.5 out of 5 - 8 ratings,2.5,NT403,NT4
BMI The Beaumont Hospital,NT404,HOS,Chorley New Road,Lostock,NULL,Bolton,Lancashire,BL6 4LA,1204404404,3.5 out of 5 - 12 ratings,3.5,NT404,NT4
BMI The Blackheath Hospital,NT406,HOS,NULL,40 - 42 Lee Terrace,NULL,London,NULL,SE3 9UD,2083187722,3.0 out of 5 - 14 ratings,3,NT406,NT4
BMI The Cavell Hospital,NT451,HOS,Cavell Drive,Uplands Park Road,NULL,Enfield,Middlesex,EN2 7PR,2083662122,3.0 out of 5 - 11 ratings,3,NT451,NT4
BMI The Chaucer Hospital,NT408,HOS,NULL,Nackington Road,NULL,Canterbury,Kent,CT4 7AR,1227825100,3.5 out of 5 - 4 ratings,3.5,NT408,NT4
BMI The Chiltern Hospital,NT410,HOS,NULL,London Road,NULL,Great Missenden,Buckinghamshire,HP16 0EN,1494890890,3.0 out of 5 - 12 ratings,3,NT410,NT4
BMI The Clementine Churchill Hospital,NT411,HOS,NULL,Sudbury Hill,NULL,Harrow,Middlesex,HA1 3RX,2088723872,3.5 out of 5 - 14 ratings,3.5,NT411,NT4
BMI The Droitwich Spa Hospital,NT412,HOS,NULL,St Andrews Road,NULL,Droitwich,Worcestershire,WR9 8DN,1905793333,4.0 out of 5 - 8 ratings,4,NT412,NT4
BMI The Duchy Hospital,NT447,HOS,NULL,Queens Road,NULL,Harrogate,North Yorkshire,HG2 0HF,1423567136,5.0 out of 5 - 3 ratings,5,NT447,NT4
BMI The Edgbaston Hospital,NT445,HOS,22 Somerset Road,Edgbaston,NULL,Birmingham,West Midlands,B15 2QQ,1214562000,3.5 out of 5 - 23 ratings,3.5,NT445,NT4
BMI The Esperance Hospital,NT413,HOS,NULL,1 Hartington Place,NULL,Eastbourne,NULL,BN21 3BG,1323411188,3.0 out of 5 - 4 ratings,3,NT413,NT4
BMI The Harbour Hospital,NT419,HOS,NULL,St Mary's Road,NULL,Poole,Dorset,BH15 2BH,1202244200,5.0 out of 5 - 8 ratings,5,NT419,NT4
BMI The Highfield Hospital,NT420,HOS,NULL,Manchester Road,NULL,Rochdale,Lancashire,OL11 4LZ,1706655121,4.5 out of 5 - 15 ratings,4.5,NT420,NT4
BMI The Huddersfield Hospital,NT448,HOS,NULL,Birkby Hall Road,NULL,Huddersfield,West Yorkshire,HD2 2BL,1484533131,4.0 out of 5 - 17 ratings,4,NT448,NT4
BMI The Kings Oak Hospital,NT421,HOS,NULL,The Ridgeway,NULL,Enfield,Middlesex,EN2 8SD,2083709500,2.5 out of 5 - 8 ratings,2.5,NT421,NT4
BMI The Lancaster Hospital,NT449,HOS,NULL,Meadowside,NULL,Lancaster,Lancashire,LA1 3RH,152462345,4.0 out of 5 - 9 ratings,4,NT449,NT4
BMI The Lincoln Hospital,NT450,HOS,NULL,Nettleham Road,NULL,Lincoln,Lincolnshire,LN2 1QU,1522578000,4.5 out of 5 - 7 ratings,4.5,NT450,NT4
BMI The London Independent Hospital,NT422,HOS,NULL,1 Beaumont Square,Stepney Green,London,NULL,E1 4NL,2077802400,2.5 out of 5 - 30 ratings,2.5,NT422,NT4
BMI The Manor Hospital,NT423,HOS,NULL,Church End,NULL,Biddenham,Bedfordshire,MK40 4AW,1234364252,3.5 out of 5 - 12 ratings,3.5,NT423,NT4
BMI The Meriden Hospital,NT424,HOS,University Hospital Site,Clifford Bridge Road,NULL,Coventry,Warwickshire,CV2 2LQ,2476647000,4.5 out of 5 - 23 ratings,4.5,NT424,NT4
BMI The Park Hospital,NT427,HOS,Sherwood Lodge Drive,Burntstump Country Park,NULL,Arnold,Nottinghamshire,NG5 8RX,1159662000,3.5 out of 5 - 7 ratings,3.5,NT427,NT4
BMI The Princess Margaret Hospital,NT428,HOS,NULL,Osborne Road,NULL,Windsor,Berkshire,SL4 3SJ,1753743434,4.0 out of 5 - 7 ratings,4,NT428,NT4
BMI The Priory Hospital,NT429,HOS,Priory Road,Edgbaston,NULL,Birmingham,West Midlands,B5 7UG,1214402323,3.0 out of 5 - 22 ratings,3,NT429,NT4
BMI The Ridgeway Hospital,NT430,HOS,Moormead Road,Wroughton,NULL,Swindon,Wiltshire,SN4 9DD,1793814848,3.0 out of 5 - 10 ratings,3,NT430,NT4
BMI The Runnymede Hospital,NT431,HOS,Guildford Road,Ottershaw,NULL,Chertsey,Surrey,KT16 0RQ,1932877800,2.0 out of 5 - 3 ratings,2,NT431,NT4
BMI The Sandringham Hospital,NT432,HOS,NULL,Gayton Road,NULL,King's Lynn,Norfolk,PE30 4HJ,1553769770,3.0 out of 5 - 2 ratings,3,NT432,NT4
BMI The Saxon Clinic,NT434,HOS,Chadwick Drive,Eaglestone West,NULL,Milton Keynes,Buckinghamshire,MK6 5LR,1908665533,3.5 out of 5 - 19 ratings,3.5,NT434,NT4
BMI The Shelburne Hospital,NT435,HOS,NULL,Queen Alexandra Road,NULL,High Wycombe,Buckinghamshire,HP11 2TR,1494888700,5.0 out of 5 - 3 ratings,5,NT435,NT4
BMI The Sloane Hospital,NT437,HOS,NULL,Albemarle Road,NULL,Beckenham,Kent,BR3 5HS,2084664000,4.5 out of 5 - 18 ratings,4.5,NT437,NT4
BMI The Winterbourne Hospital,NT443,HOS,NULL,Herringston Road,NULL,Dorchester,Dorset,DT1 2DR,1305263252,2.0 out of 5 - 8 ratings,2,NT443,NT4
BMI Thornbury Hospital,NT440,HOS,NULL,312 Fulwood Road,NULL,Sheffield,NULL,S10 3BR,1142661133,4.0 out of 5 - 19 ratings,4,NT440,NT4
BMI Three Shires Hospital,NT441,HOS,The Avenue,Cliftonville,NULL,Northampton,Northamptonshire,NN1 5DR,1604620311,3.5 out of 5 - 8 ratings,3.5,NT441,NT4
BMI Woodlands Hospital,NT457,HOS,NULL,Morton Park,NULL,Darlington,Durham,DL1 4PL,1325341700,4.5 out of 5 - 15 ratings,4.5,NT457,NT4
Boston West Hospital,NVC27,HOS,NULL,Boston West Business Park,Sleaford Road,Boston,Lincolnshire,PE21 8EG,1205591860,5.0 out of 5 - 28 ratings,5,NVC27,NVC
Bradford Royal Infirmary,RAE01,HOS,NULL,Duckworth Lane,NULL,Bradford,West Yorkshire,BD9 6RJ,1274542200,3.5 out of 5 - 180 ratings,3.5,RAE01,RAE
Braintree Community Hospital,RQ8RR,HOS,Braintree Community Hospital,Chadwick Drive,NULL,Braintree,Essex,CM7 2AL,1245362000,5.0 out of 5 - 28 ratings,5,RQ8RR,RQ8
Bridgwater Community Hospital,RH5K6,HOS,Bridgwater Community Hospital,Bower Lane,NULL,Bridgwater,Somerset,TA6 4GU,1278436555,3.5 out of 5 - 27 ratings,3.5,RH5K6,RH5
Bridport Community Hospital,RDYEJ,HOS,NULL,Hospital Lane,North Allington,Bridport,Dorset,DT6 5DR,1308422371,5.0 out of 5 - 25 ratings,5,RDYEJ,RDY
Brighton General Hospital,RXH05,HOS,Elm Grove,NULL,NULL,Brighton,East Sussex,BN2 3EW,1273696011,4.5 out of 5 - 20 ratings,4.5,RXH05,RXH
Bristol Royal Infirmary,RA701,HOS,Marlborough Street,NULL,NULL,Bristol,Avon,BS2 8HW,1179230000,4.0 out of 5 - 81 ratings,4,RA701,RA7
Brixham Hospital - Torbay and South Devon NHS Foundation Trust,RA954,HOS,Greenswood Road,NULL,NULL,Brixham,Devon,TQ5 9HW,1803881399,3.0 out of 5 - 1 rating,3,RA954,RA9
Broadgreen Hospital,RQ601,HOS,Thomas Drive,NULL,NULL,Liverpool,Merseyside,L14 3LB,1517062000,4.5 out of 5 - 77 ratings,4.5,RQ601,RQ6
Bromyard Community Hospital,RLQ03,HOS,"Bromyard Community Hospital, Wye Valley NHS Trust",Hillside Road,NULL,Bromyard,NULL,HR7 4QN,1885485700,5.0 out of 5 - 2 ratings,5,RLQ03,RLQ
Brookfields Hospital,RYV01,HOS,NULL,351 Mill Road,NULL,Cambridge,Cambridgeshire,CB1 3DF,1223603051,2.5 out of 5 - 11 ratings,2.5,RYV01,RYV
Broomfield Hospital,RQ8L0,HOS,NULL,Court Road,NULL,Chelmsford,Essex,CM1 7ET,1245362000,4.0 out of 5 - 307 ratings,4,RQ8L0,RQ8
Buckland Hospital,RVV02,HOS,Buckland Hospital,Coombe Valley Road,NULL,Dover,Kent,CT17 0HD,1304222510,3.5 out of 5 - 25 ratings,3.5,RVV02,RVV
Bupa Cromwell Hospital,NV7R1,HOS,164-178 Cromwell Road,NULL,NULL,London,NULL,SW5 0TU,2074602000,5.0 out of 5 - 2 ratings,5,NV7R1,NV7
Burnham On Sea War Memorial Hospital,RH5F4,HOS,NULL,Burnham On Sea War Memorial Hospital,6 Love Lane,Burnham-On-Sea,Somerset,TA8 1ED,1278773100,4.0 out of 5 - 5 ratings,4,RH5F4,RH5
Burnley General Hospital,RXR10,HOS,Burnley General Hospital,Casterton Avenue,NULL,Burnley,NULL,BB10 2PQ,1282425071,4.5 out of 5 - 153 ratings,4.5,RXR10,RXR
Bushey Fields Hospital,RYK34,HOS,Bushey Fields Road,NULL,NULL,Dudley,West Midlands,DY1 2LZ,NULL,1.5 out of 5 - 7 ratings,1.5,RYK34,RYK
Buxton Hospital,RY8AH,HOS,NULL,London Road,NULL,Buxton,Derbyshire,SK17 9NJ,1298214000,5.0 out of 5 - 27 ratings,5,RY8AH,RY8
Calderdale Royal Hospital,RWY02,HOS,Salterhebble,NULL,NULL,Halifax,West Yorkshire,HX3 0PW,1422357171,4.5 out of 5 - 167 ratings,4.5,RWY02,RWY
Camborne Redruth Community Hospital - Cornwall Partnership NHS Foundation Trust,RJ817,HOS,Barncoose,NULL,NULL,Redruth,Cornwall,TR15 3ER,1209318000,4.5 out of 5 - 24 ratings,4.5,RJ817,RJ8
Cannock Chase Hospital,RL4TC,HOS,Brunswick Road,NULL,NULL,Cannock,Staffordshire,WS11 5XY,1543572757,5.0 out of 5 - 126 ratings,5,RL4TC,RL4
Castle Hill Hospital,RWA16,HOS,Castle Road,NULL,NULL,Cottingham,NULL,HU16 5JQ,1482875875,4.5 out of 5 - 163 ratings,4.5,RWA16,RWA
Cavendish Hospital,RY8NW,HOS,NULL,Manchester Road,NULL,Buxton,Derbyshire,SK17 6TE,1298212800,3.0 out of 5 - 5 ratings,3,RY8NW,RY8
Central Middlesex Hospital,R1K02,HOS,Acton Lane,Park Royal,NULL,London,NULL,NW10 7NS,2089655733,2.5 out of 5 - 38 ratings,2.5,R1K02,R1K
Chapel Allerton Hospital,RR819,HOS,Chapeltown Road,NULL,NULL,Leeds,West Yorkshire,LS7 4SA,(0113)262340,4.0 out of 5 - 44 ratings,4,RR819,RR8
Charing Cross Hospital,RYJ02,HOS,NULL,Fulham Palace Road,NULL,London,NULL,W6 8RF,2033111234,4.0 out of 5 - 142 ratings,4,RYJ02,RYJ
Chase Farm Hospital,RALC7,HOS,127 The Ridgeway,NULL,NULL,Enfield,Middlesex,EN2 8JL,2083752999,4.0 out of 5 - 132 ratings,4,RALC7,RAL
Chelsea and Westminster Hospital,RQM01,HOS,369 Fulham Road,NULL,NULL,London,NULL,SW10 9NH,2033158000,4.0 out of 5 - 114 ratings,4,RQM01,RQM
Cheltenham General Hospital,RTE01,HOS,Sandford Road,NULL,NULL,Cheltenham,Gloucestershire,GL53 7AN,3004222222,4.5 out of 5 - 150 ratings,4.5,RTE01,RTE
Chester Le Street Hospital,RXPCC,HOS,Front Street,NULL,NULL,Chester Le Street,County Durham,DH3 3AT,1913332333,5.0 out of 5 - 15 ratings,5,RXPCC,RXP
Chesterfield Royal Hospital,RFSDA,HOS,Calow,Top Road,NULL,Chesterfield,Derbyshire,S44 5BL,1246277271,4.5 out of 5 - 160 ratings,4.5,RFSDA,RFS
Chorley and South Ribble Hospital,RXN01,HOS,Chorley and South Ribble Hospital,Preston Road,NULL,Chorley,Lancashire,PR7 1PP,1257261222,4.5 out of 5 - 132 ratings,4.5,RXN01,RXN
Christchurch Hospital,RDZ05,HOS,Fairmile Road,NULL,NULL,Christchurch,Dorset,BH23 2JX,1202486361,4.5 out of 5 - 29 ratings,4.5,RDZ05,RDZ
Churchill Hospital,RTH02,HOS,NULL,Old Road,Headington,Oxford,Oxfordshire,OX3 7LE,3003047777,4.5 out of 5 - 41 ratings,4.5,RTH02,RTH
Circle Bath Hospital,NV302,HOS,Foxcote Avenue,Peasedown St John,NULL,Bath,NULL,BA2 8SF,1761422324,5.0 out of 5 - 91 ratings,5,NV302,NV3
Circle Nottingham NHS Treatment Centre,NV313,HOS,Nottingham NHS Treatment Centre,Lister Road,NULL,Nottingham,NULL,NG7 2FT,1159705800,5.0 out of 5 - 1257 ratings,5,NV313,NV3
Circle Reading Hospital,NV323,HOS,NULL,100 Drake Way,NULL,Reading,NULL,RG2 0NE,1189226888,4.0 out of 5 - 40 ratings,4,NV323,NV3
City Hospital,RXK02,HOS,Dudley Road,Dudley Road,NULL,Birmingham,West Midlands,B18 7QH,1215543801,3.5 out of 5 - 77 ratings,3.5,RXK02,RXK
Claremont Private Hospital,NYW04,HOS,NULL,"401 Sandygate Road, Sheffield",NULL,Sheffield,South Yorkshire,S10 5UB,1142630330,4.5 out of 5 - 30 ratings,4.5,NYW04,NYW
Clatterbridge Hospital,RBL20,HOS,Clatterbridge Road,NULL,Bebington,Wirral,Merseyside,CH63 4JY,1513344000,4.5 out of 5 - 35 ratings,4.5,RBL20,RBL
Clay Cross Hospital,RY8NR,HOS,NULL,Market Street,NULL,Chesterfield,Derbyshire,S45 9NZ,1246252900,5.0 out of 5 - 3 ratings,5,RY8NR,RY8
Clayponds Rehabilitation Hospital,R1K68,HOS,Sterling Place,NULL,South Ealing,London,NULL,W5 4RN,2085604011,5.0 out of 5 - 2 ratings,5,R1K68,R1K
Clifton Hospital,RXL06,HOS,Pershore Road,NULL,NULL,Lytham St. Annes,Lancashire,FY8 1PB,1253956204,4.0 out of 5 - 5 ratings,4,RXL06,RXL
Clitheroe Community Hospital,RXR70,HOS,NULL,Chatburn Road,NULL,NULL,NULL,BB7 4JX,NULL,4.0 out of 5 - 3 ratings,4,RXR70,RXR
Coalville Community Hospital,RT5PE,HOS,NULL,Broom Leys Road,NULL,NULL,NULL,LE67 4DE,NULL,3.0 out of 5 - 7 ratings,3,RT5PE,RT5
Cobalt Hospital,NVC29,HOS,NULL,The Silverlink North,NULL,Newcastle Upon Tyne,NULL,NE27 0BY,1912703250,5.0 out of 5 - 13 ratings,5,NVC29,NVC
Cockermouth Community Hospital,RNNCB,HOS,NULL,Isel Road,NULL,Cockermouth,Cumbria,CA13 9HT,1900705776,3.5 out of 5 - 3 ratings,3.5,RNNCB,RNN
Colchester General Hospital,RDEE4,HOS,Turner Road,NULL,NULL,Colchester,Essex,CO4 5JL,1206747474,4.5 out of 5 - 219 ratings,4.5,RDEE4,RDE
Colman Hospital,RY311,HOS,NULL,Unthank Road,NULL,Norwich,NULL,NR2 2PJ,1603255720,5.0 out of 5 - 6 ratings,5,RY311,RY3
Congleton War Memorial Hospital,RJN63,HOS,Congleton War Memorial Hospital,Canal Road,NULL,Congleton,Cheshire,CW12 3AR,1260294800,4.0 out of 5 - 18 ratings,4,RJN63,RJN
Conquest Hospital,RXC01,HOS,The Ridge,NULL,NULL,St. Leonards-on-Sea,East Sussex,TN37 7RD,1424755255,4.5 out of 5 - 174 ratings,4.5,RXC01,RXC
Corbett Hospital,RNA04,HOS,Vicarage Road,NULL,NULL,Stourbridge,West Midlands,DY8 4JB,1384456111,3.5 out of 5 - 33 ratings,3.5,RNA04,RNA
Cossham Hospital,RVJ21,HOS,NULL,Lodge Road,Kingswood,Bristol,Avon,BS15 1LF,1173408400,4.0 out of 5 - 10 ratings,4,RVJ21,RVJ
Countess Of Chester Hospital,RJR05,HOS,The Countess Of Chester Health Park,NULL,NULL,Chester,Cheshire,CH2 1HJ,1244365000,4.0 out of 5 - 150 ratings,4,RJR05,RJR
County Hospital,RJE09,HOS,NULL,Weston Road,Stafford,Staffordshire,NULL,ST16 3SA,1785257731,4.5 out of 5 - 137 ratings,4.5,RJE09,RJE
County Hospital Louth - United Lincolnshire Hospitals NHS Trust,RWDAA,HOS,High Holme Road,NULL,NULL,Louth,Lincolnshire,LN11 0EU,1507600100,5.0 out of 5 - 36 ratings,5,RWDAA,RWD
Crawley Hospital- Sussex Community NHS Trust,RDR3E,HOS,West Green Drive,NULL,NULL,Crawley,West Sussex,RH11 7DH,NULL,4.0 out of 5 - 16 ratings,4,RDR3E,RDR
Crediton Hospital,RH836,HOS,Western Road,NULL,NULL,Crediton,Devon,EX17 3NH,1363775588,3.0 out of 5 - 2 ratings,3,RH836,RH8
Cromer and District Hospital,RM131,HOS,Mill Road,Mill Road,NULL,Cromer,Norfolk,NR27 0BQ,1263513571,5.0 out of 5 - 76 ratings,5,RM131,RM1
Croydon University Hospital,RJ611,HOS,NULL,530 London Road,NULL,Thornton Heath,Surrey,CR7 7YE,2084013000,3.0 out of 5 - 178 ratings,3,RJ611,RJ6
Danetre Hospital,RP1J6,HOS,London Road,NULL,NULL,Daventry,Northamptonshire,NN11 4DY,1327708800,5.0 out of 5 - 7 ratings,5,RP1J6,RP1
Darent Valley Hospital,RN707,HOS,Darenth Wood Road,NULL,NULL,Dartford,Kent,DA2 8DA,1322428100,4.5 out of 5 - 195 ratings,4.5,RN707,RN7
Darlington Memorial Hospital,RXPDA,HOS,Hollyhurst Road,NULL,NULL,Darlington,County Durham,DL3 6HX,1325380100,4.0 out of 5 - 167 ratings,4,RXPDA,RXP
Dawlish Hospital - Torbay and South Devon NHS Foundation Trust,RA956,HOS,Barton Terrace,NULL,NULL,Dawlish,Devon,EX7 9DH,1626868500,4.5 out of 5 - 10 ratings,4.5,RA956,RA9
Derriford Hospital,RK950,HOS,Derriford Road,Crownhill,NULL,Plymouth,Devon,PL6 8DH,1752202082,4.5 out of 5 - 220 ratings,4.5,RK950,RK9
Dewsbury and District Hospital,RXF10,HOS,NULL,Halifax Road,NULL,Dewsbury,West Yorkshire,WF13 4HS,1924541000,4.5 out of 5 - 88 ratings,4.5,RXF10,RXF
"Diana, Princess Of Wales Hospital",RJL30,HOS,Scartho Road,NULL,NULL,Grimsby,NULL,DN33 2BA,1472874111,4.0 out of 5 - 100 ratings,4,RJL30,RJL
Dorothy Pattison Hospital,RYK10,HOS,Alumwell Close,NULL,NULL,Walsall,West Midlands,WS2 9XH,1922607000,3.5 out of 5 - 7 ratings,3.5,RYK10,RYK
Dorset County Hospital,RBD01,HOS,Williams Avenue,NULL,NULL,Dorchester,Dorset,DT1 2JY,1305251150,4.5 out of 5 - 92 ratings,4.5,RBD01,RBD
Duchy Hospital,NVC04,HOS,Penventinnie Lane,NULL,NULL,Truro,Cornwall,TR1 3UP,1872226115,5.0 out of 5 - 33 ratings,5,NVC04,NVC
Ealing Hospital,R1K04,HOS,Uxbridge Road,NULL,NULL,Southall,Middlesex,UB1 3HW,2089675000,3.0 out of 5 - 80 ratings,3,R1K04,R1K
East Cleveland Hospital,RTR03,HOS,Alford Road,Brotton,NULL,Saltburn-By-The-Sea,Cleveland,TS12 2FF,1287676205,3.0 out of 5 - 2 ratings,3,RTR03,RTR
East Surrey Hospital,RTP04,HOS,NULL,Canada Avenue,NULL,Redhill,NULL,RH1 5RH,1737768511,4.5 out of 5 - 101 ratings,4.5,RTP04,RTP
Eastbourne District General Hospital,RXC02,HOS,Kings Drive,NULL,NULL,Eastbourne,East Sussex,BN21 2UD,1323417400,4.5 out of 5 - 192 ratings,4.5,RXC02,RXC
Edenbridge War Memorial Hospital,RYYD4,HOS,Edenbridge and District War Memorial Hospital,Mill Hill,NULL,Edenbridge,Kent,TN8 5DA,1732863164,5.0 out of 5 - 18 ratings,5,RYYD4,RYY
Edgware Community Hospital,RALRA,HOS,Burnt Oak Broadway,NULL,NULL,Edgware,Middlesex,HA8 0AD,2089522381,4.0 out of 5 - 22 ratings,4,RALRA,RAL
Ellen Badger Hospital,RJC04,HOS,NULL,Stratford Road,NULL,Shipston-on-Stour,Warwickshire,CV36 4AX,1608661410,5.0 out of 5 - 2 ratings,5,RJC04,RJC
Emersons Green NHS Treatment Centre,NTPH2,HOS,The Brooms,Emersons Green,NULL,Bristol,Avon,BS16 7FH,1179061801,4.5 out of 5 - 65 ratings,4.5,NTPH2,NTP
Epsom Hospital,RVR50,HOS,Dorking Road,NULL,NULL,Epsom,Surrey,KT18 7EG,1372735735,4.0 out of 5 - 84 ratings,4,RVR50,RVR
Erith and District Hospital,RN7ED,HOS,Erith Hospital,Urgent Care 01322356116,Park Crescent,Erith,Kent,DA8 3EE,1322428100,4.0 out of 5 - 72 ratings,4,RN7ED,RN7
Euxton Hall Hospital,NVC05,HOS,Wigan Road,Euxton,NULL,Chorley,Lancashire,PR7 6DY,1257276261,4.5 out of 5 - 36 ratings,4.5,NVC05,NVC
Exmouth Hospital,RH858,HOS,Claremont Grove,NULL,NULL,Exmouth,Devon,EX8 2JN,1395279684,5.0 out of 5 - 12 ratings,5,RH858,RH8
Fairfield General Hospital,RW601,HOS,Fairfield General Hospital,Rochdale Old Road,NULL,Bury,Lancashire,BL9 7TD,1616240420,4.5 out of 5 - 179 ratings,4.5,RW601,RW6
Fairfield Independent Hospital,NVG01,HOS,Crank Road,Crank,NULL,St. Helens,Merseyside,WA11 7RS,1744739311,5.0 out of 5 - 6 ratings,5,NVG01,NVG
Falmouth Hospital,RJ842,HOS,Trescobeas Road,NULL,NULL,Falmouth,Cornwall,TR11 2JA,1326430000,3.5 out of 5 - 19 ratings,3.5,RJ842,RJ8
Ferndene,RX4CA,HOS,Ferndene,Moor Road,NULL,Prudhoe,Northumberland,NE42 5PB,1661838400,5.0 out of 5 - 1 rating,5,RX4CA,RX4
Fieldhead Hospital,RXG10,HOS,Fieldhead Hospital,Ouchthorpe Lane,NULL,Wakefield,West Yorkshire,WF1 3SP,1924316000,3.0 out of 5 - 2 ratings,3,RXG10,RXG
Fitzwilliam Hospital,NVC06,HOS,Milton Way,Bretton,NULL,Peterborough,Cambridgeshire,PE3 9AQ,1733842333,4.5 out of 5 - 42 ratings,4.5,NVC06,NVC
Foscote Court (Banbury) Trust,AHH01,HOS,Foscote Hospital,2 Foscote Rise,NULL,Banbury,Oxfordshire,OX16 9XP,1295252281,5.0 out of 5 - 26 ratings,5,AHH01,AHH
Freeman Hospital,RTD01,HOS,Freeman Road,High Heaton,NULL,Newcastle Upon Tyne,Tyne and Wear,NE7 7DN,(0191)23361,5.0 out of 5 - 106 ratings,5,RTD01,RTD
Friarage Hospital,RTR45,HOS,Friarage Hospital,NULL,NULL,Northallerton,North Yorkshire,DL6 1JG,1609779911,5.0 out of 5 - 54 ratings,5,RTR45,RTR
Friary Hospital,RTR07,HOS,Queens Road,NULL,NULL,Richmond,North Yorkshire,DL10 4UJ,NULL,5.0 out of 5 - 1 rating,5,RTR07,RTR
Frimley Park Hospital,RDU01,HOS,Portsmouth Road,NULL,NULL,Camberley,Surrey,GU16 7UJ,1276604604,4.5 out of 5 - 193 ratings,4.5,RDU01,RDU
Frome Community Hospital ,RH5G5,HOS,NULL,Enos Way,NULL,Frome,Somerset,BA11 2FH,1373454740,4.5 out of 5 - 28 ratings,4.5,RH5G5,RH5
Fulwood Hall Hospital,NVC07,HOS,Midgery Lane,Fulwood,NULL,Preston,Lancashire,PR2 9SZ,1772704111,5.0 out of 5 - 68 ratings,5,NVC07,NVC
Furness General Hospital,RTXBU,HOS,Dalton Lane,NULL,NULL,Barrow-In-Furness,Cumbria,LA14 4LF,1229870870,4.5 out of 5 - 60 ratings,4.5,RTXBU,RTX
George Eliot Hospital,RLT01,HOS,College Street,NULL,NULL,Nuneaton,Warwickshire,CV10 7DJ,2476351351,4.0 out of 5 - 66 ratings,4,RLT01,RLT
Glenfield Hospital,RWEAE,HOS,NULL,Groby Road,NULL,Leicester,Leicestershire,LE3 9QP,3003031573,4.5 out of 5 - 146 ratings,4.5,RWEAE,RWE
Gloucestershire Royal Hospital,RTE03,HOS,NULL,Great Western Road,NULL,Gloucester,Gloucestershire,GL1 3NN,3004222222,3.5 out of 5 - 125 ratings,3.5,RTE03,RTE
Gosport War Memorial Hospital - Portsmouth Hospitals NHS Trust,RHU10,HOS,Bury Road,Gosport,NULL,Gosport,Hampshire,PO12 3PW,2392524611,4.5 out of 5 - 34 ratings,4.5,RHU10,RHU
Grantham and District Hospital,RWDLP,HOS,NULL,Manthorpe Road,NULL,Grantham,Lincolnshire,NG31 8DG,1476565232,5.0 out of 5 - 48 ratings,5,RWDLP,RWD
Gravesham Community Hospital,RYYDN,HOS,Gravesham Community Hospital,Bath Street,NULL,Gravesend,Kent,DA11 0DG,1474360500,5.0 out of 5 - 32 ratings,5,RYYDN,RYY
Great Ormond Street Hospital ,RP401,HOS,Great Ormond Street,NULL,NULL,London,Greater London,WC1N 3JH,+44(0)20740,3.0 out of 5 - 24 ratings,3,RP401,RP4
Guy's Hospital,RJ121,HOS,Great Maze Pond,NULL,NULL,London,NULL,SE1 9RT,2071887188,3.5 out of 5 - 115 ratings,3.5,RJ121,RJ1
Hadley Wood Hospital,RAL80,HOS,52 Moxon Street,NULL,NULL,Barnet,Hertfordshire,EN5 5TS,2037582050,4.0 out of 5 - 9 ratings,4,RAL80,RAL
Halton General Hospital,RWWHG,HOS,NULL,Hospital Way,NULL,Runcorn,Cheshire,WA7 2DA,1928714567,5.0 out of 5 - 49 ratings,5,RWWHG,RWW
Haltwhistle War Memorial Hospital,RTFDU,HOS,Westgate,NULL,NULL,Haltwhistle,Northumberland,NE49 9AJ,3448118111,5.0 out of 5 - 3 ratings,5,RTFDU,RTF
Hammersmith Hospital,RYJ03,HOS,Du Cane Road,NULL,NULL,London,NULL,W12 0HS,2033131000,4.0 out of 5 - 79 ratings,4,RYJ03,RYJ
Harefield Hospital,RT301,HOS,Hill End Road,NULL,NULL,Harefield,Middlesex,UB9 6JH,1895823737,5.0 out of 5 - 25 ratings,5,RT301,RT3
Harrogate District Hospital,RCD01,HOS,Lancaster Park Road,NULL,NULL,Harrogate,North Yorkshire,HG2 7SX,1423885959,4.5 out of 5 - 59 ratings,4.5,RCD01,RCD
Heavitree Hospital,RH802,HOS,Gladstone Road,NULL,NULL,Exeter,Devon,EX1 2ED,1392411611,4.5 out of 5 - 18 ratings,4.5,RH802,RH8
Helston Hospital - Cornwall Partnership NHS Foundation Trust,RJ805,HOS,Meneage Road,NULL,NULL,Helston,Cornwall,TR13 8DR,1326430200,4.0 out of 5 - 13 ratings,4,RJ805,RJ8
Hemel Hempstead Hospital,RWG08,HOS,NULL,Hillfield Road,NULL,Hemel Hempstead,Hertfordshire,HP2 4AD,1442213141,4.0 out of 5 - 68 ratings,4,RWG08,RWG
Hertford County Hospital,RWH23,HOS,NULL,North Road,NULL,Hertford,Hertfordshire,SG14 1LP,1438314333,4.0 out of 5 - 25 ratings,4,RWH23,RWH
Herts & Essex Hospital,RY409,HOS,Haymeads Lane,Oxford and Cambridge Wards,NULL,Bishop's Stortford,Hertfordshire,CM23 5JH,1279655191,4.5 out of 5 - 30 ratings,4.5,RY409,RY4
Hexham General Hospital,RTFDR,HOS,Corbridge Road,NULL,NULL,Hexham,Northumberland,NE46 1QJ,3448118111,5.0 out of 5 - 63 ratings,5,RTFDR,RTF
Highgate Private Hospital,NYW03,HOS,17 - 19 View Road,NULL,NULL,London,NULL,N6 4DJ,2083414182,3.0 out of 5 - 5 ratings,3,NYW03,NYW
Hillingdon Hospital,RAS01,HOS,NULL,Pield Heath Road,NULL,Uxbridge,Middlesex,UB8 3NN,1895238282,3.5 out of 5 - 119 ratings,3.5,RAS01,RAS
Hinchingbrooke Hospital,RGN90,HOS,Hinchingbrooke Hospital,Hinchingbrooke Park,NULL,Huntingdon,Cambridgeshire,PE29 6NT,1480416416,4.0 out of 5 - 117 ratings,4,RGN90,RGN
Homerton University Hospital,RQXM1,HOS,Homerton Row,Homerton Row,NULL,London,Greater London,E9 6SR,2085105555,4.0 out of 5 - 105 ratings,4,RQXM1,RQX
Honiton Hospital,RH854,HOS,Marlpits Lane,.,NULL,Honiton,Devon,EX14 2DE,1404540540,4.5 out of 5 - 25 ratings,4.5,RH854,RH8
Horsham Hospital,RDR3L,HOS,Hurst Road,NULL,NULL,Horsham,West Sussex,RH12 2DR,1403227000,4.0 out of 5 - 6 ratings,4,RDR3L,RDR
Horton General Hospital,RTH05,HOS,NULL,Oxford Road,NULL,Banbury,Oxfordshire,OX16 9AL,3003047777,4.5 out of 5 - 35 ratings,4.5,RTH05,RTH
Horton NHS Treatment Centre,NVC25,HOS,NULL,Oxford Road,NULL,Banbury,Oxfordshire,OX16 9FG,1295755000,4.5 out of 5 - 26 ratings,4.5,NVC25,NVC
Hospital Of St Cross,RKB03,HOS,Barby Rd,NULL,NULL,Rugby,Warwickshire,CV22 5PX,1788572831,4.0 out of 5 - 67 ratings,4,RKB03,RKB
Isebrook Hospital,RP1F2,HOS,Irthlingborough Road,NULL,NULL,Wellingborough,Northamptonshire,NN8 1LP,1933235800,4.5 out of 5 - 6 ratings,4.5,RP1F2,RP1
James Paget University Hospital,RGP75,HOS,Lowestoft Road,Gorleston,NULL,Great Yarmouth,Norfolk,NR31 6LA,1493452452,4.5 out of 5 - 108 ratings,4.5,RGP75,RGP
John Radcliffe Hospital,RTH08,HOS,NULL,Headley Way,Headington,Oxford,Oxfordshire,OX3 9DU,3003047777,4.0 out of 5 - 116 ratings,4,RTH08,RTH
Kelling Hospital,RY335,HOS,NULL,High Kelling,NULL,Holt,Norfolk,NR25 6QA,1263710575,5.0 out of 5 - 3 ratings,5,RY335,RY3
Kendray Hospital,RXG82,HOS,Kendray Hospital,Doncaster Road,NULL,Barnsley,South Yorkshire,S70 3RD,1226644400,3.0 out of 5 - 8 ratings,3,RXG82,RXG
Kent and Canterbury Hospital,RVVKC,HOS,Kent and Canterbury Hospital,Ethelbert Road,NULL,Canterbury,Kent,CT1 3NG,1227766877,4.0 out of 5 - 178 ratings,4,RVVKC,RVV
Kettering General Hospital,RNQ51,HOS,NULL,Rothwell Road,NULL,Kettering,Northamptonshire,NN16 8UZ,1536492000,4.0 out of 5 - 279 ratings,4,RNQ51,RNQ
Kidderminster Hospital & Treatment Centre,RWP31,HOS,NULL,Bewdley Road,NULL,Kidderminster,Worcestershire,DY11 6RJ,1562823424,4.5 out of 5 - 80 ratings,4.5,RWP31,RWP
KIMS Hospital,ADP02,HOS,Newnham Court Way,Weavering,NULL,Maidstone,Kent,ME14 5FT,1622237500,4.5 out of 5 - 16 ratings,4.5,ADP02,ADP
King George Hospital,RF4DG,HOS,NULL,Barley Lane,NULL,Ilford,Essex,IG3 8YB,3304004333,3.5 out of 5 - 138 ratings,3.5,RF4DG,RF4
King's College Hospital,RJZ01,HOS,NULL,Denmark Hill,NULL,London,NULL,SE5 9RS,2032999000,4.0 out of 5 - 194 ratings,4,RJZ01,RJZ
King's Mill Hospital,RK5BC,HOS,Mansfield Road,NULL,NULL,Sutton-In-Ashfield,Nottinghamshire,NG17 4JL,1623622515,4.5 out of 5 - 362 ratings,4.5,RK5BC,RK5
Kingston Hospital,RAX01,HOS,Galsworthy Road,NULL,NULL,Kingston Upon Thames,Surrey,KT2 7QB,2085467711,4.0 out of 5 - 151 ratings,4,RAX01,RAX
Knutsford and District Community Hospital,RJN68,HOS,Knutsford District and Community Hospital,Bexton Road,NULL,Knutsford,Cheshire,WA16 0BT,1565757220,5.0 out of 5 - 6 ratings,5,RJN68,RJN
Launceston Hospital - Cornwall Partnership NHS Foundation Trust,RJ870,HOS,Link Road,NULL,NULL,Launceston,Cornwall,PL15 9JD,1566761000,4.5 out of 5 - 9 ratings,4.5,RJ870,RJ8
Leamington Spa Hospital,RJC46,HOS,Heathcote Lane,Heathcote,NULL,Warwick,Warwickshire,CV34 6SR,1926317700,3.0 out of 5 - 6 ratings,3,RJC46,RJC
Leatherhead Community Hospital,NTV13,HOS,Poplar Road,Surrey,NULL,Leatherhead,Surrey,KT22 8SD,1372384384,5.0 out of 5 - 4 ratings,5,NTV13,NTV
Leicester General Hospital,RWEAK,HOS,NULL,Gwendolen Road,NULL,Leicester,Leicestershire,LE5 4PW,3003031573,3.5 out of 5 - 223 ratings,3.5,RWEAK,RWE
Leighton Hospital,RBT20,HOS,Leighton Hospital,Middlewich Road,NULL,Crewe,Cheshire,CW1 4QJ,1270255141,4.5 out of 5 - 153 ratings,4.5,RBT20,RBT
Leominster Community Hospital,RLQ06,HOS,"Leominster Community Hospital, Wye Valley NHS Trust",South Street,NULL,Leominster,NULL,HR6 8JH,1568614211,5.0 out of 5 - 2 ratings,5,RLQ06,RLQ
Lincoln County Hospital,RWDDA,HOS,Greetwell Road,NULL,NULL,Lincoln,Lincolnshire,LN2 5QY,1522512512,4.0 out of 5 - 263 ratings,4,RWDDA,RWD
Liskeard Community Hospital - Cornwall Partnership NHS Foundation Trust,RJ8A3,HOS,Clemo Road,NULL,NULL,Liskeard,Cornwall,PL14 3XD,1579373500,4.5 out of 5 - 17 ratings,4.5,RJ8A3,RJ8
Lister Hospital,RWH01,HOS,Coreys Mill Lane,NULL,NULL,Stevenage,Hertfordshire,SG1 4AB,1438314333,4.0 out of 5 - 467 ratings,4,RWH01,RWH
Liverpool Heart and Chest Hospital,RBQHQ,HOS,NULL,Thomas Drive,NULL,Liverpool,NULL,L14 3PE,1516001616,5.0 out of 5 - 29 ratings,5,RBQHQ,RBQ
Liverpool Women's NHS Foundation Trust,REP01,HOS,NULL,Crown Street,NULL,Liverpool,NULL,L8 7SS,1517089988,3.5 out of 5 - 46 ratings,3.5,REP01,REP
London Bridge Hospital,NW605,HOS,27 Tooley Street,NULL,NULL,London,NULL,SE1 2PR,2074073100,4.5 out of 5 - 5 ratings,4.5,NW605,NW6
Ludlow Community Hospital,R1D21,HOS,NULL,Gravel Hill,NULL,Ludlow,Shropshire,SY8 1QX,1584872201,5.0 out of 5 - 2 ratings,5,R1D21,R1D
Luton and Dunstable Hospital,RC971,HOS,NULL,Lewsey Road,NULL,Luton,Bedfordshire,LU4 0DZ,1582491166,4.5 out of 5 - 224 ratings,4.5,RC971,RC9
Lymington New Forest Hospital,RW1YM,HOS,Wellworthy Road,NULL,NULL,Lymington,Hampshire,SO41 8QD,1590663000,5.0 out of 5 - 43 ratings,5,RW1YM,RW1
Macclesfield District General Hospital,RJN71,HOS,NULL,Victoria Road,NULL,Macclesfield,Cheshire,SK10 3BL,1625421000,4.5 out of 5 - 214 ratings,4.5,RJN71,RJN
Maidstone Hospital,RWF03,HOS,NULL,Hermitage Lane,NULL,Maidstone,Kent,ME16 9QQ,1622729000,4.5 out of 5 - 99 ratings,4.5,RWF03,RWF
"Malton, Norton & District Hospital",RCBL8,HOS,NULL,Middlecave Road,NULL,Malton,North Yorkshire,YO17 7NG,1653693041,4.5 out of 5 - 29 ratings,4.5,RCBL8,RCB
Manchester Royal Eye Hospital,R0A04,HOS,Oxford Road,NULL,NULL,Manchester,Greater Manchester,M13 9WL,1612761234,4.5 out of 5 - 15 ratings,4.5,R0A04,R0A
Manchester Royal Infirmary,R0A02,HOS,Oxford Road,NULL,NULL,Manchester,Greater Manchester,M13 9WL,1612761234,3.5 out of 5 - 128 ratings,3.5,R0A02,R0A
Manor Hospital,RBK02,HOS,NULL,Moat Road,NULL,Walsall,NULL,WS2 9PS,1922721172,3.0 out of 5 - 138 ratings,3,RBK02,RBK
Medway Maritime Hospital,RPA02,HOS,Windmill Road,NULL,NULL,Gillingham,Kent,ME7 5NY,1634830000,3.5 out of 5 - 247 ratings,3.5,RPA02,RPA
Milton Keynes Hospital,RD816,HOS,Standing Way,NULL,NULL,Milton Keynes,Buckinghamshire,MK6 5LD,1908660033,4.0 out of 5 - 207 ratings,4,RD816,RD8
Montagu Hospital,RP5MM,HOS,Adwick Road,NULL,NULL,Mexborough,NULL,S64 0AZ,1709585171,4.5 out of 5 - 54 ratings,4.5,RP5MM,RP5
Moorfields Eye Hospital (City Road),RP601,HOS,162 City Road,NULL,NULL,London,NULL,EC1V 2PD,2072533411,4.5 out of 5 - 87 ratings,4.5,RP601,RP6
Moseley Hall Hospital,RYW23,HOS,NULL,Alcester Road,NULL,Birmingham,NULL,B13 8JL,1214666000,3.5 out of 5 - 13 ratings,3.5,RYW23,RYW
Mount Stuart Hospital,NVC08,HOS,St. Vincents Road,NULL,NULL,Torquay,Devon,TQ1 4UP,1803313881,4.0 out of 5 - 23 ratings,4,NVC08,NVC
Mount Vernon Hospital,RAS02,HOS,Rickmansworth Road,Rickmansworth Road,NULL,Northwood,Middlesex,HA6 2RN,1923826111,4.5 out of 5 - 99 ratings,4.5,RAS02,RAS
Musgrove Park Hospital,RBA11,HOS,NULL,NULL,Parkfield Drive,Taunton,Somerset,TA1 5DA,1823333444,4.5 out of 5 - 126 ratings,4.5,RBA11,RBA
"National Hospital For Neurology and Neurosurgery, Queen Square",RRVNQ,HOS,NULL,Queen Square,NULL,London,NULL,WC1N 3BG,2034567890,4.0 out of 5 - 85 ratings,4,RRVNQ,RRV
New Cross Hospital,RL403,HOS,Wolverhampton Road,Heath Town,NULL,Wolverhampton,West Midlands,WV10 0QP,1902307999,4.0 out of 5 - 381 ratings,4,RL403,RL4
New Hall Hospital,NVC09,HOS,Bodenham,NULL,NULL,Salisbury,Wiltshire,SP5 4EY,1722422333,4.0 out of 5 - 31 ratings,4,NVC09,NVC
New Richardson Hospital,RXP35,HOS,Victoria Road,NULL,NULL,Barnard Castle,NULL,DL12 8HT,1833696500,4.0 out of 5 - 4 ratings,4,RXP35,RXP
Newark Hospital,RK5HP,HOS,Boundary Road,NULL,NULL,Newark,Nottinghamshire,NG24 4DE,1636681681,4.5 out of 5 - 68 ratings,4.5,RK5HP,RK5
Newham General Hospital,R1HNH,HOS,Glen Road,Plaistow,NULL,London,NULL,E13 8SL,2074764000,3.0 out of 5 - 139 ratings,3,R1HNH,R1H
Newholme Hospital,RY8NA,HOS,(Head Office),Baslow Road,NULL,Bakewell,Derbyshire,DE45 1AD,1629812525,5.0 out of 5 - 2 ratings,5,RY8NA,RY8
Newquay Hospital - Cornwall Partnership NHS Foundation Trust,RJ807,HOS,St Thomas Road,NULL,NULL,Newquay,Cornwall,TR7 1RQ,1637834800,5.0 out of 5 - 14 ratings,5,RJ807,RJ8
Newton Abbot Community Hospital - Torbay and South Devon NHS Foundation Trust,RA957,HOS,Jetty Marsh Road,NULL,NULL,Newton Abbot,Devon,TQ12 2TS,1626324500,5.0 out of 5 - 14 ratings,5,RA957,RA9
Norfolk and Norwich University Hospital,RM102,HOS,NULL,Colney Lane,NULL,Norwich,Norfolk,NR4 7UY,1603286286,4.5 out of 5 - 211 ratings,4.5,RM102,RM1
North Cambridgeshire Hospital - Cambridgeshire and Peterborough NHS Foundation Trust,RT182,HOS,NULL,North Cambs Hospital,Churchill Road,Wisbech,Cambridgeshire,PE13 3AB,1945488088,4.0 out of 5 - 7 ratings,4,RT182,RT1
North Devon District Hospital,RBZ12,HOS,Raleigh Park,NULL,NULL,Barnstaple,Devon,EX31 4JB,1271322577,4.5 out of 5 - 49 ratings,4.5,RBZ12,RBZ
North Downs Hospital,NVC11,HOS,46 Tupwood Lane,NULL,NULL,Caterham,Surrey,CR3 6DP,1883348981,5.0 out of 5 - 10 ratings,5,NVC11,NVC
North East London NHS Treatment Centre,NTP15,HOS,c/o Care UK,King George Hospital,Barley Lane,Ilford,Essex,IG3 8YB,3332004069,4.5 out of 5 - 45 ratings,4.5,NTP15,NTP
North Manchester General Hospital,RW602,HOS,Delaunays Road,Crumpsall,NULL,Manchester,Greater Manchester,M8 5RB,1616240420,4.0 out of 5 - 187 ratings,4,RW602,RW6
North Middlesex University Hospital,RAPNM,HOS,NULL,Sterling Way,NULL,London,NULL,N18 1QX,2088872000,3.5 out of 5 - 197 ratings,3.5,RAPNM,RAP
North Tyneside General Hospital,RTFFS,HOS,Rake Lane,NULL,NULL,North Shields,NULL,NE29 8NH,3448118111,4.0 out of 5 - 110 ratings,4,RTFFS,RTF
Northampton General Hospital (Acute),RNS01,HOS,NULL,Cliftonville,NULL,Northampton,Northamptonshire,NN1 5BD,1604634700,4.0 out of 5 - 104 ratings,4,RNS01,RNS
Northern General Hospital,RHQNG,HOS,NULL,Northern General Hospital,Herries Road,Sheffield,South Yorkshire,S5 7AU,1142434343,4.0 out of 5 - 150 ratings,4,RHQNG,RHQ
Northumbria Specialist Emergency Care Hospital,RTF86,HOS,Northumbria Specialist Emergency Care Hospital,Northumbria Way,Northumberland,Cramlington,Northumberland,NE23 6NZ,3448118111,4.0 out of 5 - 169 ratings,4,RTF86,RTF
Northwick Park Hospital,R1K01,HOS,Watford Road,NULL,NULL,London,Middlesex,HA1 3UJ,2088643232,2.5 out of 5 - 280 ratings,2.5,R1K01,R1K
Norwich Community Hospital,RY312,HOS,NULL,Bowthorpe Road,NULL,Norwich,NULL,NR2 3TU,1603776776,2.5 out of 5 - 18 ratings,2.5,RY312,RY3
Nottingham University Hospitals NHS Trust - City Campus,RX1CC,HOS,Nottingham City Hospital,Hucknall Road,NULL,Nottingham,Nottinghamshire,NG5 1PB,1159691169,4.5 out of 5 - 177 ratings,4.5,RX1CC,RX1
"Nuffield Health, Bournemouth Hospital",NT202,HOS,NULL,67 Landsdowne Road,NULL,Bournemouth,Dorset,BH1 1RW,8000155020,5.0 out of 5 - 2 ratings,5,NT202,NT2
"Nuffield Health, Brentwood Hospital",NT204,HOS,NULL,Shenfield Road,NULL,Brentwood,Essex,CM15 8EH,8000155020,3.5 out of 5 - 8 ratings,3.5,NT204,NT2
"Nuffield Health, Brighton Hospital",NT205,HOS,NULL,Warren Road,Woodingdean,Brighton,NULL,BN2 6DX,8000155020,4.0 out of 5 - 7 ratings,4,NT205,NT2
"Nuffield Health, Bristol Hospital (Chesterfield)",NT206,HOS,3 Clifton Hill,Clifton,NULL,Bristol,Avon,BS8 1BN,8000155020,4.5 out of 5 - 8 ratings,4.5,NT206,NT2
"Nuffield Health, Cambridge Hospital",NT209,HOS,Nuffield Health Cambridge Hospital,4 Trumpington Road,NULL,Cambridge,Cambridgeshire,CB2 8AF,8000155020,5.0 out of 5 - 1 rating,5,NT209,NT2
"Nuffield Health, Chichester Hospital",NT212,HOS,NULL,78 Broyle Road,NULL,Chichester,NULL,PO19 6WB,8000155020,5.0 out of 5 - 1 rating,5,NT212,NT2
"Nuffield Health, Derby Hospital",NT213,HOS,NULL,Rykneld Road,Littleover,Derby,Derbyshire,DE23 4SN,8000155020,5.0 out of 5 - 5 ratings,5,NT213,NT2
"Nuffield Health, Exeter Hospital",NT215,HOS,Nuffield Health Exeter Hospital,Wonford Road,NULL,Exeter,Devon,EX2 4UG,8000155020,3.0 out of 5 - 12 ratings,3,NT215,NT2
"Nuffield Health, Guildford Hospital",NT216,HOS,NULL,Stirling Road,NULL,Guildford,Surrey,GU2 7RF,1483555800,2.5 out of 5 - 4 ratings,2.5,NT216,NT2
"Nuffield Health, Haywards Heath Hospital",NT218,HOS,NULL,Burrell Road,NULL,Haywards Heath,NULL,RH16 1UD,8000155020,5.0 out of 5 - 1 rating,5,NT218,NT2
"Nuffield Health, Hereford Hospital",NT219,HOS,NULL,Venns Lane,NULL,Hereford,Herefordshire,HR1 1DF,1432355131,5.0 out of 5 - 1 rating,5,NT219,NT2
"Nuffield Health, Leeds Hospital",NT225,HOS,Nuffield Health Leeds Hospital,2 Leighton Street,NULL,Leeds,West Yorkshire,LS1 3EB,1133503158,5.0 out of 5 - 31 ratings,5,NT225,NT2
"Nuffield Health, Leicester Hospital",NT226,HOS,NULL,Scraptoft Lane,NULL,Leicester,Leicestershire,LE5 1HY,8000155020,2.0 out of 5 - 4 ratings,2,NT226,NT2
"Nuffield Health, Newcastle-upon-Tyne Hospital",NT229,HOS,NULL,Clayton Road,NULL,Newcastle Upon Tyne,NULL,NE2 1JP,8000155020,4.0 out of 5 - 6 ratings,4,NT229,NT2
"Nuffield Health, North Staffordshire Hospital",NT230,HOS,NULL,Clayton Road,NULL,Newcastle Under Lyme,Staffordshire,ST5 4DB,8000155020,3.5 out of 5 - 3 ratings,3.5,NT230,NT2
"Nuffield Health, Plymouth Hospital",NT233,HOS,NULL,Derriford Road,NULL,Plymouth,Devon,PL6 8BG,8000155020,5.0 out of 5 - 7 ratings,5,NT233,NT2
"Nuffield Health, Shrewsbury Hospital",NT235,HOS,NULL,Longden Road,NULL,Shrewsbury,Shropshire,SY3 9DP,8000155020,5.0 out of 5 - 13 ratings,5,NT235,NT2
"Nuffield Health, Taunton Hospital",NT238,HOS,NULL,Staplegrove Elm,NULL,Taunton,Somerset,TA2 6AN,8000155020,3.5 out of 5 - 3 ratings,3.5,NT238,NT2
"Nuffield Health, Tees Hospital",NT237,HOS,Nuffield Health Tees Hospital,Junction Road,Norton,Stockton-on-Tees,Cleveland,TS20 1PX,8000155020,5.0 out of 5 - 7 ratings,5,NT237,NT2
"Nuffield Health, The Grosvenor Hospital, Chester",NT210,HOS,"Nuffield Health Chester Hospital, The Grosvenor",Wrexham Road,NULL,Chester,Cheshire,CH4 7QP,8000155020,3.5 out of 5 - 2 ratings,3.5,NT210,NT2
"Nuffield Health, The Manor Hospital, Oxford",NT244,HOS,NULL,Beech Road,Headington,Oxford,Oxfordshire,OX3 7RP,8000155020,3.5 out of 5 - 5 ratings,3.5,NT244,NT2
"Nuffield Health, Warwickshire Hospital",NT224,HOS,NULL,The Chase,Old Milverton Lane,Leamington Spa,Warwickshire,CV32 6RW,8000155020,5.0 out of 5 - 2 ratings,5,NT224,NT2
"Nuffield Health, Wessex Hospital",NT214,HOS,Nuffield Health Wessex Hospital,Winchester Road,Chandlers Ford,Eastleigh,Hampshire,SO53 2DW,8000155020,4.5 out of 5 - 12 ratings,4.5,NT214,NT2
"Nuffield Health, Wolverhampton Hospital",NT242,HOS,NULL,Wood Road,Tettenhall,Wolverhampton,NULL,WV6 8LE,8000155020,3.0 out of 5 - 1 rating,3,NT242,NT2
"Nuffield Health, York Hospital",NT245,HOS,NULL,Haxby Road,NULL,York,North Yorkshire,YO31 8TA,8000155020,3.5 out of 5 - 5 ratings,3.5,NT245,NT2
Oaklands Hospital,NVC12,HOS,19 Lancaster Road,NULL,NULL,Salford,Greater Manchester,M6 8AQ,1617877700,3.5 out of 5 - 48 ratings,3.5,NVC12,NVC
Oaks Hospital,NVC13,HOS,Oaks Place,Mile End Road,NULL,Colchester,Essex,CO4 5XR,1206752121,4.0 out of 5 - 19 ratings,4,NVC13,NVC
Okehampton Community Hospital,RH833,HOS,Cavell Way,.,NULL,Okehampton,Devon,EX20 1PN,1837658000,5.0 out of 5 - 2 ratings,5,RH833,RH8
One Ashford Hospital,AVQ01,HOS,Kennington Road,Willesborough,NULL,Ashford,Kent,TN24 0YS,1233423000,5.0 out of 5 - 1 rating,5,AVQ01,AVQ
One Hatfield Hospital,AVQ03,HOS,One Hatfield Hospital,3 Hatfield Avenue,NULL,Hatfield,Hertfordshire,AL10 9UA,1707443333,4.5 out of 5 - 4 ratings,4.5,AVQ03,AVQ
Orpington Hospital,RJZ70,HOS,Sevenoaks Road,NULL,NULL,Orpington,Kent,BR6 9JU,1689863000,4.0 out of 5 - 70 ratings,4,RJZ70,RJZ
Orthopaedics and Spine Specialist Hospital,NQM01,HOS,1 Stirling Way,Bretton,NULL,Peterborough,Cambridgeshire,PE3 8YA,1733333156,5.0 out of 5 - 120 ratings,5,NQM01,NQM
Park Hill Hospital,NVC14,HOS,Thorne Road,NULL,NULL,Doncaster,South Yorkshire,DN2 5TH,1302730300,3.5 out of 5 - 18 ratings,3.5,NVC14,NVC
Pendle Community Hospital,RXR50,HOS,Leeds Road,Leeds Rd,NULL,Nelson,Lancashire,BB9 9SZ,1282425071,3.5 out of 5 - 9 ratings,3.5,RXR50,RXR
Peninsula NHS Treatment Centre,NTPH5,HOS,20 Brest Road,Derriford,NULL,Plymouth,Devon,PL6 5XP,1752506070,5.0 out of 5 - 30 ratings,5,NTPH5,NTP
Penrith Hospital,RNNBE,HOS,Penrith Community Hospital,Bridge Lane,NULL,Penrith,NULL,CA11 8HX,1768245555,4.0 out of 5 - 15 ratings,4,RNNBE,RNN
Peterborough City Hospital,RGN80,HOS,Edith Cavell Campus,"Bretton Gate, Bretton",NULL,Peterborough,Cambridgeshire,PE3 9GZ,1733678000,4.5 out of 5 - 273 ratings,4.5,RGN80,RGN
Peterlee Community Hospital - County Durham and Darlington NHS Foundation Trust,RXP09,HOS,O'neill Drive,NULL,NULL,Peterlee,County Durham,SR8 5UQ,NULL,4.5 out of 5 - 6 ratings,4.5,RXP09,RXP
Pilgrim Hospital,RWDLA,HOS,Sibsey Road,NULL,NULL,Boston,Lincolnshire,PE21 9QS,1205364801,4.5 out of 5 - 195 ratings,4.5,RWDLA,RWD
Pinderfields Hospital,RXF05,HOS,Pinderfields Hospital,Aberford Road,NULL,Wakefield,West Yorkshire,WF1 4DG,1924541000,4.0 out of 5 - 350 ratings,4,RXF05,RXF
Pinehill Hospital,NVC15,HOS,NULL,Benslow Lane,NULL,Hitchin,Hertfordshire,SG4 9QZ,1462422822,4.5 out of 5 - 18 ratings,4.5,NVC15,NVC
Potters Bar Community Hospital,RY402,HOS,NULL,Oakmere Ward,NULL,Potters Bar,Hertfordshire,EN6 2RY,1707653286,4.5 out of 5 - 5 ratings,4.5,RY402,RY4
Prince Charles Eye Unit,RHW03,HOS,St Leonards Road,NULL,NULL,Windsor,Berkshire,SL4 3DP,1753860441,4.5 out of 5 - 40 ratings,4.5,RHW03,RHW
Princess Alexandra Hospital,RQWG0,HOS,NULL,Hamstel Road,NULL,Harlow,Essex,CM20 1QX,1279444455,4.0 out of 5 - 171 ratings,4,RQWG0,RQW
Princess Anne Hospital,RHM12,HOS,NULL,Coxford Road,NULL,Southampton,Hampshire,SO16 5YA,2380777222,4.0 out of 5 - 44 ratings,4,RHM12,RHM
Princess Royal Hospital,RXH09,HOS,Lewes Road,NULL,NULL,Haywards Heath,West Sussex,RH16 4EX,1444441881,4.5 out of 5 - 88 ratings,4.5,RXH09,RXH
Princess Royal Hospital ,RXWAT,HOS,Apley Castle,Grainger Drive,NULL,Telford,Shropshire,TF1 6TF,1952641222,4.0 out of 5 - 91 ratings,4,RXWAT,RXW
Princess Royal University Hospital,RJZ30,HOS,NULL,Farnborough Common,NULL,Orpington,Kent,BR6 8ND,1689863000,3.5 out of 5 - 126 ratings,3.5,RJZ30,RJZ
Purley War Memorial Hospital,RJ613,HOS,856 Brighton Road,856 Brighton Road,NULL,Purley,Surrey,CR8 2YL,2084013000,4.0 out of 5 - 42 ratings,4,RJ613,RJ6
Queen Alexandra Hospital,RHU03,HOS,Southwick Hill Road,Cosham,NULL,Portsmouth,Hampshire,PO6 3LY,2392286000,4.5 out of 5 - 366 ratings,4.5,RHU03,RHU
Queen Charlotte's & Chelsea Hospital,RYJ04,HOS,Du Cane Road,NULL,NULL,London,NULL,W12 0HS,2033131111,3.5 out of 5 - 75 ratings,3.5,RYJ04,RYJ
Queen Elizabeth Hospital,RJ231,HOS,Stadium Road,NULL,NULL,London,NULL,SE18 4QH,2088366000,3.0 out of 5 - 112 ratings,3,RJ231,RJ2
Queen Elizabeth Hospital,RR7EN,HOS,Sheriff Hill,NULL,NULL,Gateshead,Tyne and Wear,NE9 6SX,1914820000,4.5 out of 5 - 135 ratings,4.5,RR7EN,RR7
Queen Elizabeth Hospital Birmingham,RRK15,HOS,Mindelsohn Way,Edgbaston,NULL,Birmingham,NULL,B15 2WB,1213712000,4.0 out of 5 - 240 ratings,4,RRK15,RRK
Queen Elizabeth I I Hospital,RWH20,HOS,Howlands,Howlands,NULL,Welwyn Garden City,Hertfordshire,AL7 4HQ,1438314333,3.5 out of 5 - 109 ratings,3.5,RWH20,RWH
Queen Elizabeth The Queen Mother Hospital,RVV09,HOS,Queen Elizabeth The Queen Mother Hospital,St Peters Road,NULL,Margate,Kent,CT9 4AN,1843225544,3.5 out of 5 - 103 ratings,3.5,RVV09,RVV
Queen Mary - St George's University Hospitals NHS Foundation Trust,RJ731,HOS,NULL,Roehampton Lane,Roehampton,London,NULL,SW15 5PN,2084876000,4.5 out of 5 - 58 ratings,4.5,RJ731,RJ7
Queen Victoria Hospital (East Grinstead),RPC04,HOS,NULL,Holtye Road,NULL,East Grinstead,West Sussex,RH19 3DZ,1342414000,5.0 out of 5 - 71 ratings,5,RPC04,RPC
Queen Victoria Memorial Hospital,RY412,HOS,School Lane,NULL,NULL,Welwyn,Hertfordshire,AL6 9PW,1438841800,1.0 out of 5 - 1 rating,1,RY412,RY4
Queen Victoria Memorial Hospital,RYYC3,HOS,King Edward Avenue,NULL,NULL,Herne Bay,Kent,CT6 6EB,1227594700,4.0 out of 5 - 22 ratings,4,RYYC3,RYY
Queen's Hospital,RF4QH,HOS,Rom Valley Way,NULL,NULL,Romford,Essex,RM7 0AG,1708435000,3.5 out of 5 - 356 ratings,3.5,RF4QH,RF4
Renacres Hospital,NVC16,HOS,Renacres Lane,Halsall,NULL,Ormskirk,Lancashire,L39 8SE,1704841133,4.5 out of 5 - 27 ratings,4.5,NVC16,NVC
Retford Hospital,RP5RE,HOS,North Road,NULL,NULL,Retford,Nottinghamshire,DN22 7XF,1777274400,3.5 out of 5 - 3 ratings,3.5,RP5RE,RP5
Ripley Hospital,RY8DG,HOS,NULL,Sandham Lane,NULL,Ripley,Derbyshire,DE5 3HE,1773743456,5.0 out of 5 - 29 ratings,5,RY8DG,RY8
Ripon and District Community Hospital,RCD02,HOS,Firby Lane,NULL,NULL,Ripon,North Yorkshire,HG4 2PR,1423542900,5.0 out of 5 - 15 ratings,5,RCD02,RCD
Rivers Hospital,NVC19,HOS,High Wych Road,NULL,NULL,Sawbridgeworth,Hertfordshire,CM21 0HH,1279600282,5.0 out of 5 - 29 ratings,5,NVC19,NVC
Ross on Wye Community Hospital ,RLQ08,HOS,"Ross on Wye Community Hospital, Wye Valley NHS Trust",Alton Street,NULL,Ross-on-Wye,Herefordshire,HR9 5AD,1989562100,4.0 out of 5 - 3 ratings,4,RLQ08,RLQ
Rotherham Hospital,RFRPA,HOS,NULL,Moorgate Road,NULL,Rotherham,NULL,S60 2UD,1709820000,3.5 out of 5 - 121 ratings,3.5,RFRPA,RFR
Rowley Hall Hospital,NVC17,HOS,Rowley Avenue,NULL,NULL,Stafford,Staffordshire,ST17 9AQ,1785238600,4.0 out of 5 - 32 ratings,4,NVC17,NVC
Rowley Regis Hospital,RXK10,HOS,Moor Lane,NULL,NULL,Rowley Regis,West Midlands,B65 8DA,1215076300,3.5 out of 5 - 19 ratings,3.5,RXK10,RXK
Royal Berkshire Hospital,RHW01,HOS,London Road,Craven Road,NULL,Reading,Berkshire,RG1 5AN,1183225111,4.5 out of 5 - 292 ratings,4.5,RHW01,RHW
Royal Blackburn Hospital,RXR20,HOS,Haslingden Road,Haslingden Road,NULL,Blackburn,Lancashire,BB2 3HH,1254263555,4.0 out of 5 - 243 ratings,4,RXR20,RXR
Royal Bolton Hospital,RMC01,HOS,Minerva Road,Farnworth,NULL,Bolton,Lancashire,BL4 0JR,1204390390,4.5 out of 5 - 326 ratings,4.5,RMC01,RMC
Royal Bournemouth Hospital,RDZ20,HOS,Castle Lane East,NULL,NULL,Bournemouth,Dorset,BH7 7DW,1202303626,4.5 out of 5 - 160 ratings,4.5,RDZ20,RDZ
Royal Brompton Hospital,RT302,HOS,Sydney Street,NULL,NULL,London,Greater London,SW3 6NP,2073528121,5.0 out of 5 - 29 ratings,5,RT302,RT3
Royal Cornwall Hospital (Treliske),REF12,HOS,Treliske,NULL,NULL,Truro,Cornwall,TR1 3LQ,1872250000,4.5 out of 5 - 355 ratings,4.5,REF12,REF
Royal Derby Hospital,RTGFG,HOS,Royal Derby Hospital,NULL,NULL,Derby,Derbyshire,DE22 3NE,1332340131,4.5 out of 5 - 190 ratings,4.5,RTGFG,RTG
Royal Devon and Exeter Hospital (Wonford),RH801,HOS,Barrack Road,NULL,NULL,Exeter,Devon,EX2 5DW,1392411611,4.5 out of 5 - 151 ratings,4.5,RH801,RH8
Royal Free Hospital,RAL01,HOS,NULL,Pond Street,NULL,London,NULL,NW3 2QG,2077940500,3.5 out of 5 - 176 ratings,3.5,RAL01,RAL
Royal Hallamshire Hospital,RHQHH,HOS,Glossop Road,NULL,NULL,Sheffield,South Yorkshire,S10 2JF,1142711900,4.5 out of 5 - 251 ratings,4.5,RHQHH,RHQ
Royal Hampshire County Hospital,RN541,HOS,NULL,Romsey Road,NULL,Winchester,Hampshire,SO22 5DG,1962863535,4.5 out of 5 - 93 ratings,4.5,RN541,RN5
Royal Hospital For Neuro-Disability (West Hill),NN101,HOS,West Hill,NULL,NULL,London,Greater London,SW15 3SW,NULL,3.5 out of 5 - 2 ratings,3.5,NN101,NN1
Royal Manchester Children's Hospital,R0A03,HOS,Oxford Road,NULL,NULL,Manchester,Greater Manchester,M13 9WL,1612761234,4.5 out of 5 - 22 ratings,4.5,R0A03,R0A
Royal National Mineral Hospital For Rheumatic Diseases NHS Foundation Trust,RD115,HOS,Upper Borough Walls,NULL,NULL,Bath,Avon,BA1 1RL,NULL,2.0 out of 5 - 3 ratings,2,RD115,RD1
Royal National Orthopaedic Hospital (Bolsover Street),RAN02,HOS,45-51 Bolsover Street,NULL,NULL,London,Greater London,W1W 5AQ,2089542300,2.0 out of 5 - 2 ratings,2,RAN02,RAN
"Royal National Throat, Nose and Ear Hospital",RRVRN,HOS,NULL,330 Grays Inn Road,NULL,London,NULL,WC1X 8DA,2034567890,3.5 out of 5 - 32 ratings,3.5,RRVRN,RRV
Royal Oldham Hospital,RW603,HOS,Rochdale Road,NULL,NULL,Oldham,Lancashire,OL1 2JH,1616240420,4.0 out of 5 - 175 ratings,4,RW603,RW6
Royal Orthopaedic Hospital,RRJ05,HOS,The Woodlands,Bristol Road South,Northfield,Birmingham,West Midlands,B31 2AP,1216854000,4.5 out of 5 - 75 ratings,4.5,RRJ05,RRJ
Royal Papworth Hospital,RGM21,HOS,Royal Papworth Hospital,Cambridge Biomedical Campus,Papworth Road,Cambridge,Cambridgeshire,NULL,1223638000,4.0 out of 5 - 30 ratings,4,RGM21,RGM
Royal Preston Hospital,RXN02,HOS,Sharoe Green Lane North,Fulwood,NULL,Preston,Lancashire,PR2 9HT,1772716565,4.0 out of 5 - 268 ratings,4,RXN02,RXN
Royal Shrewsbury Hospital,RXWAS,HOS,NULL,Mytton Oak Road,NULL,Shrewsbury,Shropshire,SY3 8XQ,1743261000,4.5 out of 5 - 97 ratings,4.5,RXWAS,RXW
Royal South Hants Hospital - Care UK,NTP11,HOS,c/o Care UK - Level C,Southampton NHS Treatment Centre,Brintons Terrace,Southampton,Hampshire,SO14 0YG,3332001820,4.0 out of 5 - 85 ratings,4,NTP11,NTP
Royal Stoke University Hospital,RJE01,HOS,Newcastle Road,NULL,NULL,Stoke-on-Trent,Staffordshire,ST4 6QG,1782715444,4.0 out of 5 - 176 ratings,4,RJE01,RJE
Royal Surrey County Hospital,RA201,HOS,Royal Surrey County Hospital,Egerton Road,NULL,Guildford,Surrey,GU2 7XX,1483571122,4.5 out of 5 - 267 ratings,4.5,RA201,RA2
Royal Sussex County Hospital,RXH01,HOS,Eastern Road,NULL,NULL,Brighton,East Sussex,BN2 5BE,1273696955,4.0 out of 5 - 181 ratings,4,RXH01,RXH
"Royal United Hospitals, Bath",RD130,HOS,Combe Park,NULL,NULL,Bath,Avon,BA1 3NG,1225428331,4.5 out of 5 - 148 ratings,4.5,RD130,RD1
Russells Hall Hospital,RNA01,HOS,Pensnett Road,NULL,NULL,Dudley,West Midlands,DY1 2HQ,1384456111,4.0 out of 5 - 298 ratings,4,RNA01,RNA
Salford Royal,RM301,HOS,NULL,Stott Lane,NULL,Salford,NULL,M6 8HD,1617897373,4.0 out of 5 - 215 ratings,4,RM301,RM3
Salisbury District Hospital,RNZ02,HOS,Odstock Road,NULL,NULL,Salisbury,Wiltshire,SP2 8BJ,1722336262,4.5 out of 5 - 107 ratings,4.5,RNZ02,RNZ
Sandwell District General Hospital,RXK01,HOS,Lyndon,NULL,NULL,West Bromwich,West Midlands,B71 4HJ,1215531831,3.5 out of 5 - 48 ratings,3.5,RXK01,RXK
Scarborough Hospital,RCBCA,HOS,NULL,Woodlands Drive,NULL,Scarborough,NULL,YO12 6QL,1723368111,4.5 out of 5 - 99 ratings,4.5,RCBCA,RCB
Scunthorpe General Hospital,RJL32,HOS,Cliff Gardens,NULL,NULL,Scunthorpe,NULL,DN15 7BH,1724282282,4.5 out of 5 - 160 ratings,4.5,RJL32,RJL
Seacroft Hospital,RR814,HOS,York Road,NULL,NULL,Leeds,West Yorkshire,LS14 6UH,(0113)264816,3.5 out of 5 - 13 ratings,3.5,RR814,RR8
Sedgefield Community Hospital,RXPCL,HOS,Salters Lane,Sedgefield,NULL,Stockton-On-Tees,Cleveland,TS21 3EE,NULL,3.5 out of 5 - 2 ratings,3.5,RXPCL,RXP
Sevenoaks Hospital,RYYD9,HOS,Sevenoaks Hospital,Hospital Road,NULL,Sevenoaks,Kent,TN13 3PG,1732470200,4.5 out of 5 - 54 ratings,4.5,RYYD9,RYY
Sheffield Children's Hospital,RCUEF,HOS,Western Bank,NULL,NULL,Sheffield,South Yorkshire,S10 2TH,1142717000,4.5 out of 5 - 27 ratings,4.5,RCUEF,RCU
Sheppey Community Hospital,RYYC7,HOS,Plover Road,Minster On Sea,NULL,Sheerness,Kent,ME12 3LT,1795879100,3.0 out of 5 - 19 ratings,3,RYYC7,RYY
Sittingbourne Memorial Hospital,RYYC8,HOS,Bell Road,NULL,NULL,Sittingbourne,Kent,ME10 4DT,1795418300,4.0 out of 5 - 36 ratings,4,RYYC8,RYY
South Bristol Community Hospital,RA773,HOS,South Bristol NHS Community Hospital,Hengrove Promenade,NULL,Bristol,NULL,BS14 0DB,1179230000,4.0 out of 5 - 35 ratings,4,RA773,RA7
South Hams Hospital,RK935,HOS,Plymouth Road,NULL,NULL,Kingsbridge,Devon,TQ7 1AT,1548852349,4.5 out of 5 - 9 ratings,4.5,RK935,RK9
Southampton General Hospital,RHM01,HOS,NULL,Tremona Road,NULL,Southampton,Hampshire,SO16 6YD,2380777222,4.5 out of 5 - 139 ratings,4.5,RHM01,RHM
Southend Hospital,RAJ01,HOS,NULL,Prittlewell Chase,NULL,Westcliff-on-Sea,Essex,SS0 0RY,1702435555,3.5 out of 5 - 157 ratings,3.5,RAJ01,RAJ
Southlands Hospital,RYR14,HOS,Upper Shoreham Road,NULL,NULL,Shoreham-By-Sea,West Sussex,BN43 6TQ,1903205111,4.0 out of 5 - 27 ratings,4,RYR14,RYR
Southmead Hospital,RVJ01,HOS,Southmead Road,Westbury-on-Trym,NULL,Bristol,Avon,BS10 5NB,1179505050,4.0 out of 5 - 189 ratings,4,RVJ01,RVJ
Southport and Formby District General Hospital,RVY01,HOS,NULL,Town Lane,NULL,Southport,Merseyside,PR8 6PN,1704547471,4.0 out of 5 - 50 ratings,4,RVY01,RVY
SpaMedica Eye Hospital Wakefield,NPG07,HOS,Unit 10 Silkwood Park,Fryers Way,NULL,Ossett,West Yorkshire,WF5 9TJ,3300584280,5.0 out of 5 - 198 ratings,5,NPG07,NPG
"Spencer Private Hospitals, Margate",NN801,HOS,Spencer Private Hospitals,Queen Elizabeth The Queen Mother Hospital,Ramsgate Road,Margate,Kent,CT9 4BG,1843234555,5.0 out of 5 - 2 ratings,5,NN801,NN8
Spire Alexandra Hospital,NT312,HOS,Impton Lane,NULL,NULL,Chatham,Kent,ME5 9PG,1634687166,4.5 out of 5 - 9 ratings,4.5,NT312,NT3
Spire Bristol Hospital,NT302,HOS,NULL,Redland Hill,NULL,Bristol,NULL,BS6 6UT,1179804000,4.5 out of 5 - 7 ratings,4.5,NT302,NT3
Spire Bushey Hospital,NT315,HOS,Heathbourne Road,Bushey Heath,NULL,Bushey,Hertfordshire,WD23 1RD,2089015572,4.0 out of 5 - 6 ratings,4,NT315,NT3
Spire Cambridge Lea Hospital,NT317,HOS,30 New Road,Impington,NULL,Cambridge,Cambridgeshire,CB24 9EL,1223266900,4.0 out of 5 - 9 ratings,4,NT317,NT3
Spire Cheshire Hospital,NT324,HOS,NULL,Fir Tree Close,Stretton,Warrington,Cheshire,WA4 4LU,1925265000,5.0 out of 5 - 20 ratings,5,NT324,NT3
Spire Clare Park Hospital,NT345,HOS,Crondall Lane,NULL,NULL,Farnham,Surrey,GU10 5XX,1252895421,4.0 out of 5 - 7 ratings,4,NT345,NT3
Spire Dunedin Hospital,NT344,HOS,16 Bath Road,NULL,NULL,Reading,Berkshire,RG1 6NS,1189587676,4.5 out of 5 - 11 ratings,4.5,NT344,NT3
Spire Elland Hospital,NT348,HOS,Elland Lane,NULL,NULL,Elland,West Yorkshire,HX5 9EB,1422324000,5.0 out of 5 - 9 ratings,5,NT348,NT3
Spire Fylde Coast Hospital,NT347,HOS,NULL,St. Walburgas Road,NULL,Blackpool,Lancashire,FY3 8BP,1253394188,5.0 out of 5 - 37 ratings,5,NT347,NT3
Spire Gatwick Park Hospital,NT308,HOS,Povey Cross Road,NULL,NULL,Horley,Surrey,RH6 0BB,1293778919,3.5 out of 5 - 6 ratings,3.5,NT308,NT3
Spire Harpenden Hospital,NT316,HOS,Spire Harpenden Hospital,Ambrose Lane,NULL,Harpenden,NULL,AL5 4BP,1582763191,4.5 out of 5 - 4 ratings,4.5,NT316,NT3
Spire Hartswood Hospital,NT319,HOS,Eagle Way,NULL,NULL,Brentwood,Essex,CM13 3LE,1277232525,5.0 out of 5 - 5 ratings,5,NT319,NT3
Spire Hull and East Riding Hospital,NT351,HOS,Lowfield Road,Anlaby,NULL,Hull,NULL,HU10 7AZ,1482659471,4.5 out of 5 - 60 ratings,4.5,NT351,NT3
Spire Leeds Hospital,NT332,HOS,NULL,Jackson Avenue,NULL,Leeds,West Yorkshire,LS8 1NT,1132693939,5.0 out of 5 - 7 ratings,5,NT332,NT3
Spire Leicester Hospital,NT322,HOS,NULL,Gartree Road,NULL,Leicester,Leicestershire,LE2 2FF,1162653685,3.0 out of 5 - 4 ratings,3,NT322,NT3
Spire Little Aston Hospital,NT321,HOS,Little Aston Hall Drive,Little Aston,NULL,Sutton Coldfield,NULL,B74 3UP,1213532444,3.5 out of 5 - 20 ratings,3.5,NT321,NT3
Spire Liverpool Hospital,NT337,HOS,Spire Liverpool Hospital,57 Greenbank Road,NULL,Liverpool,NULL,L18 1HQ,1517337123,3.0 out of 5 - 22 ratings,3,NT337,NT3
Spire London East Hospital,NT314,HOS,Roding Lane South,NULL,NULL,Ilford,Essex,IG4 5PZ,2087097878,3.5 out of 5 - 23 ratings,3.5,NT314,NT3
Spire Manchester Hospital,NT327,HOS,170 Barlow Moor Road,Didsbury,NULL,Manchester,Greater Manchester,M20 2AF,1614476677,4.0 out of 5 - 11 ratings,4,NT327,NT3
Spire Methley Park Hospital,NT350,HOS,Methley Lane,Methley,NULL,Leeds,West Yorkshire,LS26 9HG,1977518518,3.0 out of 5 - 7 ratings,3,NT350,NT3
Spire Murrayfield Hospital,NT325,HOS,Holmwood Drive,Heswall,NULL,Wirral,Merseyside,CH61 1AU,1519295408,4.5 out of 5 - 7 ratings,4.5,NT325,NT3
Spire Norwich Hospital,NT318,HOS,Watton Road,NULL,NULL,Norwich,Norfolk,NR4 7TD,1603456181,5.0 out of 5 - 2 ratings,5,NT318,NT3
Spire Nottingham Hospital,NT30A,HOS,Spire Nottingham Hospital,Tollerton Lane,Tollerton,Nottingham,Nottinghamshire,NG12 4GA,1159377800,5.0 out of 5 - 5 ratings,5,NT30A,NT3
Spire Parkway Hospital,NT320,HOS,1 Damson Parkway,NULL,NULL,Solihull,West Midlands,B91 2PP,1217041451,3.5 out of 5 - 9 ratings,3.5,NT320,NT3
Spire Portsmouth Hospital,NT305,HOS,Bartons Road,NULL,NULL,Havant,Hampshire,PO9 5NP,2392456172,3.5 out of 5 - 11 ratings,3.5,NT305,NT3
Spire Regency Hospital,NT339,HOS,West Street,NULL,NULL,Macclesfield,Cheshire,SK11 8DW,1625501150,4.5 out of 5 - 9 ratings,4.5,NT339,NT3
Spire South Bank Hospital,NT301,HOS,NULL,139 Bath Road,NULL,Worcester,Worcestershire,WR5 3YB,1905350003,4.0 out of 5 - 8 ratings,4,NT301,NT3
Spire Southampton Hospital,NT304,HOS,Chalybeate Hospital,Chalybeate Close,NULL,Southampton,Hampshire,SO16 6UY,2380775544,4.0 out of 5 - 9 ratings,4,NT304,NT3
Spire St Anthony's Hospital,NT3X3,HOS,801 London Road,Cheam,NULL,Sutton,Surrey,SM3 9DW,2083376691,4.5 out of 5 - 9 ratings,4.5,NT3X3,NT3
Spire Sussex Hospital,NT309,HOS,NULL,The Ridge,NULL,St. Leonards-on-Sea,NULL,TN37 7PT,1424757400,4.5 out of 5 - 5 ratings,4.5,NT309,NT3
Spire Thames Valley Hospital,NT343,HOS,Wexham Street,Wexham,NULL,Slough,Berkshire,SL3 6NH,1753662241,4.5 out of 5 - 4 ratings,4.5,NT343,NT3
Spire Tunbridge Wells Hospital,NT310,HOS,Fordcombe Road,Fordcombe,NULL,Tunbridge Wells,Kent,TN3 0RD,1892740047,3.0 out of 5 - 3 ratings,3,NT310,NT3
Spire Washington Hospital,NT333,HOS,Picktree Lane,NULL,NULL,Washington,Tyne and Wear,NE38 9JZ,1914188669,3.5 out of 5 - 13 ratings,3.5,NT333,NT3
Spire Wellesley Hospital,NT313,HOS,Eastern Avenue,NULL,NULL,Southend-on-Sea,Essex,SS2 4XH,1702462944,4.0 out of 5 - 9 ratings,4,NT313,NT3
Springfield Hospital,NVC18,HOS,Lawn Lane,NULL,NULL,Chelmsford,Essex,CM1 7GU,1245234000,4.0 out of 5 - 38 ratings,4,NVC18,NVC
Springfield University Hospital,RQY01,HOS,61 Glenburnie Road,NULL,NULL,London,NULL,SW17 7DJ,2035135000,3.0 out of 5 - 19 ratings,3,RQY01,RQY
St Albans City Hospital,RWG03,HOS,Waverley Road,NULL,NULL,St. Albans,Hertfordshire,AL3 5PN,1727866122,4.5 out of 5 - 120 ratings,4.5,RWG03,RWG
St Bartholomew's Hospital,R1HM0,HOS,West Smithfield,NULL,NULL,London,NULL,EC1A 7BE,2034165000,4.5 out of 5 - 115 ratings,4.5,R1HM0,R1H
"St Charles Hospital, Mental Health Unit",RV320,HOS,NULL,Exmoor Street,NULL,NULL,NULL,W10 6DZ,NULL,3.0 out of 5 - 6 ratings,3,RV320,RV3
St George's Hospital (London),RJ701,HOS,Blackshaw Road,NULL,NULL,London,Greater London,SW17 0QT,2086721255,4.0 out of 5 - 187 ratings,4,RJ701,RJ7
St Georges Hospital (Morpeth),RX4E2,HOS,St Georges Hospital,NULL,NULL,Morpeth,Northumberland,NE61 2NU,1912466800,3.0 out of 5 - 6 ratings,3,RX4E2,RX4
St Helens Hospital,RBN02,HOS,Marshalls Cross Road,NULL,NULL,St. Helens,Merseyside,WA9 3DA,1514261600,4.5 out of 5 - 154 ratings,4.5,RBN02,RBN
St Helier Hospital,RVR05,HOS,Wrythe Lane,NULL,NULL,Carshalton,Surrey,SM5 1AA,2082962000,3.5 out of 5 - 95 ratings,3.5,RVR05,RVR
St James,R1CF2,HOS,Locksway Road,NULL,NULL,Southsea,Hampshire,PO4 8LD,NULL,1.0 out of 5 - 1 rating,1,R1CF2,R1C
St James's Hospital,RR813,HOS,Beckett Street,NULL,NULL,Leeds,West Yorkshire,LS9 7TF,1132433144,3.5 out of 5 - 118 ratings,3.5,RR813,RR8
St Lukes Hospital,RAE05,HOS,NULL,Little Horton Lane,NULL,Bradford,West Yorkshire,BD5 0NA,1274734744,3.5 out of 5 - 77 ratings,3.5,RAE05,RAE
St Lukes Hospital,RWELS,HOS,33 Leicester Road,NULL,NULL,Market Harborough,Leicestershire,LE16 7BN,1858410300,4.5 out of 5 - 16 ratings,4.5,RWELS,RWE
St Mark's Hospital,R1K03,HOS,Watford Road,NULL,NULL,Harrow,Middlesex,HA1 3UJ,2088643232,4.5 out of 5 - 27 ratings,4.5,R1K03,R1K
St Mary's Hospital,R0A05,HOS,Oxford Road,NULL,NULL,Manchester,Greater Manchester,M13 9WL,1612761234,4.0 out of 5 - 53 ratings,4,R0A05,R0A
St Mary's Hospital,R1F01,HOS,St. Mary's Hospital,Parkhurst Road,NULL,Newport,Isle of Wight,PO30 5TG,1983822099,4.0 out of 5 - 61 ratings,4,R1F01,R1F
St Mary's Hospital (HQ),RYJ01,HOS,Praed Street,NULL,NULL,London,NULL,W2 1NY,2033126666,3.5 out of 5 - 165 ratings,3.5,RYJ01,RYJ
St Michael's Hospital,REF02,HOS,Trelissick Road,NULL,NULL,Hayle,Cornwall,TR27 4JA,1736758854,5.0 out of 5 - 34 ratings,5,REF02,REF
St Pancras Hospital,RV3DY,HOS,Inpatient Unit,South Wing,4 St. Pancras Way,London,NULL,NW1 0PE,2033173500,3.0 out of 5 - 3 ratings,3,RV3DY,RV3
St Peter's Hospital,RQ8LJ,HOS,NULL,Spital Road,NULL,Maldon,Essex,CM9 6EG,1621725323,4.5 out of 5 - 12 ratings,4.5,RQ8LJ,RQ8
St Peter's Hospital,RTK01,HOS,Guildford Road,NULL,NULL,Chertsey,Surrey,KT16 0PZ,1932872000,4.5 out of 5 - 199 ratings,4.5,RTK01,RTK
St Richard's Hospital,RYR16,HOS,Spitalfield Lane,NULL,NULL,Chichester,West Sussex,PO19 6SE,(01243)78812,4.5 out of 5 - 125 ratings,4.5,RYR16,RYR
St Thomas',RJ122,HOS,NULL,Westminster Bridge Road,NULL,London,NULL,SE1 7EH,2071887188,4.0 out of 5 - 144 ratings,4,RJ122,RJ1
Stamford and Rutland Hospital,RGN49,HOS,Ryhall Road,NULL,NULL,Stamford,Lincolnshire,PE9 1UA,1733678000,4.0 out of 5 - 47 ratings,4,RGN49,RGN
Stepping Hill Hospital,RWJ09,HOS,Stockport Healthy Minds,Oasis Building,Stepping Hill Hospital,Stockport,Cheshire,SK2 7JE,1617165711,4.5 out of 5 - 261 ratings,4.5,RWJ09,RWJ
Stoke Mandeville Hospital,RXQ02,HOS,NULL,Mandeville Road,Aylesbury,Buckinghamshire,NULL,HP21 8AL,1296315000,4.0 out of 5 - 124 ratings,4,RXQ02,RXQ
Stratford Hospital,RJC03,HOS,NULL,Arden Street,NULL,Stratford-upon-Avon,Warwickshire,CV37 6NX,1789205831,4.0 out of 5 - 45 ratings,4,RJC03,RJC
Stratton Hospital - Cornwall Partnership NHS Foundation Trust,RJ867,HOS,Stratton,NULL,NULL,Bude,Cornwall,EX23 9BR,1288320100,4.5 out of 5 - 32 ratings,4.5,RJ867,RJ8
Sunderland Psychological Wellbeing Service,RX4K2,HOS,Sunderland Psychological Wellbeing Service,Monkwearmouth Hospital,Newcastle Road,Sunderland,Tyne and Wear,SR5 1NB,1915665454,1.0 out of 5 - 4 ratings,1,RX4K2,RX4
Sunderland Royal Hospital,RLNGL,HOS,NULL,Kayll Road,NULL,Sunderland,NULL,SR4 7TP,1915656256,4.5 out of 5 - 354 ratings,4.5,RLNGL,RLN
Sutton Hospital,RVR06,HOS,Cotswold Road,NULL,NULL,Sutton,Surrey,SM2 5NF,2082962000,2.5 out of 5 - 6 ratings,2.5,RVR06,RVR
Swaffham Community Hospital,RY33E,HOS,NULL,Sporle Road,NULL,Swaffham,Norfolk,PE37 7HL,1760726550,5.0 out of 5 - 1 rating,5,RY33E,RY3
Swanage Community Hospital,RDYFF,HOS,NULL,Queens Road,NULL,Swanage,Dorset,BH19 2ES,1929422282,5.0 out of 5 - 17 ratings,5,RDYFF,RDY
Tameside & Glossop Integrated Care NHS Foundation Trust,RMP01,HOS,Fountain St,NULL,NULL,Ashton Under Lyne,Lancashire,OL6 9RW,1619226000,4.0 out of 5 - 82 ratings,4,RMP01,RMP
Tees Valley Hospital,NVC0R,HOS,Church Lane,Acklam,NULL,Middlesbrough,Cleveland,TS5 7DX,1642087333,4.5 out of 5 - 44 ratings,4.5,NVC0R,NVC
Teignmouth Hospital,RA959,HOS,Mill Lane,NULL,NULL,Teignmouth,Devon,TQ14 9BQ,1626772161,5.0 out of 5 - 1 rating,5,RA959,RA9
Tenbury Community Hospital,R1AAN,HOS,Worcester Road,Burford,NULL,Tenbury Wells,Worcestershire,WR15 8AP,1584810643,5.0 out of 5 - 2 ratings,5,R1AAN,R1A
Tetbury Hospital,AAH01,HOS,Malmesbury Road,NULL,NULL,Tetbury,Gloucestershire,GL8 8XB,1666502336,5.0 out of 5 - 7 ratings,5,AAH01,AAH
The Berkshire Independent Hospital,NVC02,HOS,Swallowscroft,Wensley Road,NULL,Reading,Berkshire,RG1 6UZ,1189028000,3.0 out of 5 - 23 ratings,3,NVC02,NVC
The Christie main site,RBV01,HOS,550 Wilmslow Road,Withington,NULL,Manchester,Greater Manchester,M20 4BX,1614463000,4.5 out of 5 - 11 ratings,4.5,RBV01,RBV
"The County Hospital, Wye Valley NHS Trust",RLQ01,HOS,NULL,NULL,Stonebow Road,Hereford,Herefordshire,HR1 2BN,1432355444,4.0 out of 5 - 59 ratings,4,RLQ01,RLQ
The Gordon Hospital,RV346,HOS,Bloomburg Street,NULL,NULL,London,NULL,SW1V 2RH,2033158733,1.0 out of 5 - 5 ratings,1,RV346,RV3
The Great Western Hospital,RN325,HOS,NULL,Marlborough Road,NULL,Swindon,Wiltshire,SN3 6BB,1793604020,4.0 out of 5 - 132 ratings,4,RN325,RN3
The James Cook University Hospital,RTRAT,HOS,Marton Road,NULL,NULL,Middlesbrough,Cleveland,TS4 3BW,1642850850,4.5 out of 5 - 104 ratings,4.5,RTRAT,RTR
The Montefiore Hospital,NT364,HOS,NULL,2 Montefiore Road,NULL,Hove,East Sussex,BN3 1RD,1273828120,4.0 out of 5 - 12 ratings,4,NT364,NT3
The Queen Elizabeth Hospital,RCX70,HOS,Gayton Road,NULL,NULL,King's Lynn,Norfolk,PE30 4ET,1553613613,4.5 out of 5 - 61 ratings,4.5,RCX70,RCX
The Riverside Centre,RV3AN,HOS,Pield Heath Road,Hillingdon Hospital,NULL,Uxbridge,Middlesex,UB8 3NN,NULL,3.0 out of 5 - 2 ratings,3,RV3AN,RV3
The Robert Jones and Agnes Hunt Orthopaedic Hospital,RL131,HOS,NULL,NULL,NULL,Oswestry,Shropshire,SY10 7AG,1691404000,5.0 out of 5 - 16 ratings,5,RL131,RL1
The Royal Liverpool University Hospital,RQ617,HOS,Prescot Street,NULL,NULL,Liverpool,Merseyside,L7 8XP,1517062000,4.0 out of 5 - 106 ratings,4,RQ617,RQ6
The Royal London Hospital,R1H12,HOS,NULL,Whitechapel Road,Whitechapel,London,NULL,E1 1FR,2073777000,3.5 out of 5 - 271 ratings,3.5,R1H12,R1H
The Royal London Hospital For Integrated Medicine,RRV60,HOS,60 Great Ormond Street,NULL,NULL,London,NULL,WC1N 3HR,2034567890,3.0 out of 5 - 21 ratings,3,RRV60,RRV
The Royal Marsden Hospital (London),RPY01,HOS,Fulham Road,NULL,NULL,London,Greater London,SW3 6JJ,2073528171,4.5 out of 5 - 15 ratings,4.5,RPY01,RPY
The Royal Marsden Hospital (Surrey),RPY02,HOS,Downs Road,NULL,NULL,Sutton,Surrey,SM2 5PT,2086426011,4.5 out of 5 - 21 ratings,4.5,RPY02,RPY
The Royal National Orthopaedic Hospital (Stanmore),RAN01,HOS,Brockley Hill,NULL,NULL,Stanmore,Middlesex,HA7 4LP,2089542300,3.5 out of 5 - 56 ratings,3.5,RAN01,RAN
The Walton Centre ,RET20,HOS,Lower Lane,Fazakerley,NULL,Liverpool,Merseyside,L9 7LJ,1515253611,4.0 out of 5 - 53 ratings,4,RET20,RET
The Westbourne Centre,NVC44,HOS,NULL,53 Church Road,Edgbaston,Birmingham,NULL,B15 3SJ,1214560880,5.0 out of 5 - 34 ratings,5,NVC44,NVC
The Whittington Hospital,RKEQ4,HOS,Magdala Avenue,Magdala Avenue,NULL,London,NULL,N19 5NF,2072723070,4.0 out of 5 - 87 ratings,4,RKEQ4,RKE
Tiverton and District Hospital,RH853,HOS,Kennedy Way,.,NULL,Tiverton,Devon,EX16 6NT,1884235400,4.0 out of 5 - 18 ratings,4,RH853,RH8
Tolworth Hospital,RQY08,HOS,Red Lion Road,Red Lion Road,NULL,Surbiton,Surrey,KT6 7QU,2035135000,5.0 out of 5 - 1 rating,5,RQY08,RQY
Tonbridge Cottage Hospital,RYYDC,HOS,Tonbridge Cottage Hospital,Vauxhall Lane,NULL,Tonbridge,Kent,TN11 0NE,1732353653,3.5 out of 5 - 2 ratings,3.5,RYYDC,RYY
Torbay Hospital,RA901,HOS,Lowes Bridge,NULL,NULL,Torquay,Devon,TQ2 7AA,1803614567,5.0 out of 5 - 274 ratings,5,RA901,RA9
Totnes Hospital - Torbay and South Devon NHS Foundation Trust,RA979,HOS,Coronation Road,NULL,NULL,Totnes,Devon,TQ9 5GH,1803862622,5.0 out of 5 - 8 ratings,5,RA979,RA9
Trafford General Hospital,R0A09,HOS,Moorside Road,Urmston,NULL,Manchester,Greater Manchester,M41 5SL,1617484022,4.0 out of 5 - 91 ratings,4,R0A09,R0A
Tunbridge Wells Hospital at Pembury,RWFTW,HOS,Tunbridge Wells Hospital,Pembury,NULL,Tunbridge Wells,Kent,TN2 4QJ,1892823535,4.0 out of 5 - 150 ratings,4,RWFTW,RWF
Uckfield Hospital,RXC18,HOS,Framfield Road,NULL,NULL,Uckfield,East Sussex,TN22 5AW,NULL,5.0 out of 5 - 3 ratings,5,RXC18,RXC
University College Hospital,RRV03,HOS,University College Hospital,235 Euston Road,NULL,London,NULL,NW1 2BU,2034567890,3.5 out of 5 - 168 ratings,3.5,RRV03,RRV
University Hospital (Coventry),RKB01,HOS,Clifford Bridge Road,NULL,NULL,Coventry,Warwickshire,CV2 2DX,2476964000,4.0 out of 5 - 178 ratings,4,RKB01,RKB
University Hospital Lewisham,RJ224,HOS,Lewisham High Street,NULL,NULL,London,NULL,SE13 6LH,2083333000,3.5 out of 5 - 117 ratings,3.5,RJ224,RJ2
University Hospital Of Hartlepool,RVWAA,HOS,Holdforth Road,NULL,NULL,Hartlepool,Cleveland,TS24 9AH,1642617617,4.0 out of 5 - 46 ratings,4,RVWAA,RVW
University Hospital Of North Durham,RXPCP,HOS,North Road,NULL,NULL,Durham,County Durham,DH1 5TW,1913332333,4.0 out of 5 - 156 ratings,4,RXPCP,RXP
University Hospital Of North Tees,RVWAE,HOS,Hardwick Road,NULL,NULL,Stockton-on-Tees,Cleveland,TS19 8PE,1642617617,4.5 out of 5 - 105 ratings,4.5,RVWAE,RVW
Victoria Hospital,RDYFE,HOS,Victoria Hospital,Victoria Road,NULL,Wimborne,Dorset,BH21 1ER,1202856410,4.5 out of 5 - 49 ratings,4.5,RDYFE,RDY
Victoria Hospital (Sidmouth),RH859,HOS,General Hospital,NULL,NULL,Sidmouth,Devon,EX10 8EW,NULL,4.5 out of 5 - 4 ratings,4.5,RH859,RH8
"Victoria Hospital, Deal",RYYCH,HOS,Victoria Hospital,London Road,NULL,Deal,Kent,CT14 9UA,1304865400,5.0 out of 5 - 45 ratings,5,RYYCH,RYY
Walton Hospital,RY8AJ,HOS,Walton Hospital,Whitecotes Lane,NULL,Chesterfield,Derbyshire,S40 3HW,1246515505,4.0 out of 5 - 11 ratings,4,RY8AJ,RY8
Wansbeck General Hospital,RTFED,HOS,Woodhorn Lane,NULL,NULL,Ashington,Northumberland,NE63 9JJ,3448118111,5.0 out of 5 - 87 ratings,5,RTFED,RTF
Warrington Hospital,RWWWH,HOS,Warrington Hospital,Lovely Lane,NULL,Warrington,Cheshire,WA5 1QG,1925635911,4.0 out of 5 - 137 ratings,4,RWWWH,RWW
Warwick Hospital,RJC02,HOS,Warwick Hospital,Lakin Road,NULL,Warwick,Warwickshire,CV34 5BW,1926495321,4.5 out of 5 - 226 ratings,4.5,RJC02,RJC
Watford General Hospital,RWG02,HOS,Vicarage Road,NULL,NULL,Watford,Hertfordshire,WD18 0HB,1923244366,3.5 out of 5 - 182 ratings,3.5,RWG02,RWG
West Cornwall Hospital (Penzance),REF01,HOS,St Clare Street,NULL,NULL,Penzance,Cornwall,TR18 2PF,1736874000,5.0 out of 5 - 70 ratings,5,REF01,REF
West Cumberland Hospital,RNLBX,HOS,Homewood,Hensingham,NULL,Whitehaven,NULL,CA28 8JG,1946693181,4.5 out of 5 - 104 ratings,4.5,RNLBX,RNL
West Middlesex University Hospital,RQM91,HOS,Twickenham Road,NULL,NULL,Isleworth,Middlesex,TW7 6AF,2085602121,4.0 out of 5 - 246 ratings,4,RQM91,RQM
West Midlands Hospital,NVC21,HOS,Colman Hill,NULL,NULL,Halesowen,West Midlands,B63 2AH,1384560123,4.0 out of 5 - 20 ratings,4,NVC21,NVC
West Suffolk Hospital,RGR50,HOS,Hardwick Lane,Hardwick Lane,NULL,Bury St. Edmunds,Suffolk,IP33 2QZ,1284713000,4.5 out of 5 - 199 ratings,4.5,RGR50,RGR
Western Community Hospital,R1C03,HOS,William Macleod Way,NULL,NULL,Southampton,Hampshire,SO16 4XE,NULL,2.0 out of 5 - 3 ratings,2,R1C03,R1C
Western Eye Hospital,RYJ07,HOS,153-173 Marylebone Road,NULL,NULL,London,NULL,NW1 5QH,2033126666,3.5 out of 5 - 72 ratings,3.5,RYJ07,RYJ
Westhaven Hospital,RDYEG,HOS,NULL,Radipole Lane,NULL,Weymouth,Dorset,DT4 0QE,1305786116,4.0 out of 5 - 3 ratings,4,RDYEG,RDY
Westmorland General Hospital,RTXBW,HOS,NULL,Burton Rd,NULL,Kendal,NULL,LA9 7RG,1539732288,5.0 out of 5 - 33 ratings,5,RTXBW,RTX
Weston General Hospital,RA301,HOS,NULL,Grange Road,Uphill,Weston-Super-Mare,NULL,BS23 4TQ,1934636363,4.5 out of 5 - 48 ratings,4.5,RA301,RA3
Weston Park Hospital,RHQWP,HOS,Whitham Road,NULL,NULL,Sheffield,South Yorkshire,S10 2SJ,1142265000,4.5 out of 5 - 9 ratings,4.5,RHQWP,RHQ
Wexham Park Hospital,RDU50,HOS,Wexham Park,NULL,NULL,Slough,Berkshire,SL2 4HL,1753633000,3.5 out of 5 - 200 ratings,3.5,RDU50,RDU
Weymouth Community Hospital,RDYEF,HOS,Weymouth Community Hospital,3 Melcombe Avenue,NULL,Weymouth,Dorset,DT4 7TB,1305760022,4.5 out of 5 - 39 ratings,4.5,RDYEF,RDY
Wharfedale Hospital,RR807,HOS,Newall Carr Road,NULL,NULL,Otley,West Yorkshire,LS21 2LY,(01943)46552,4.0 out of 5 - 81 ratings,4,RR807,RR8
Whipps Cross University Hospital,R1HKH,HOS,Whipps Cross Road,NULL,NULL,London,NULL,E11 1NR,2034165000,3.5 out of 5 - 371 ratings,3.5,R1HKH,R1H
Whiston Hospital,RBN01,HOS,Warrington Road,NULL,NULL,Prescot,Merseyside,L35 5DR,1514261600,4.5 out of 5 - 168 ratings,4.5,RBN01,RBN
Whitchurch Community Hospital,R1D34,HOS,NULL,Claypit Street,NULL,Whitchurch,Shropshire,SY13 1NT,1948666292,5.0 out of 5 - 4 ratings,5,R1D34,R1D
Whitworth Hospital,RY838,HOS,NULL,330 Bakewell Road,Darley Dale,Matlock,Derbyshire,DE4 2JD,1629580211,5.0 out of 5 - 24 ratings,5,RY838,RY8
William Harvey Hospital (Ashford),RVV01,HOS,Kennington Road,Willesborough,NULL,Ashford,Kent,TN24 0LZ,1233633331,3.5 out of 5 - 323 ratings,3.5,RVV01,RVV
Winfield Hospital,NVC22,HOS,Tewkesbury Road,Longford,NULL,Gloucester,Gloucestershire,GL2 9WH,1452331111,5.0 out of 5 - 12 ratings,5,NVC22,NVC
Woking Community Hospital (Virgin Care),NDA18,HOS,NULL,Heathside Road,NULL,Woking,Surrey,GU22 7HS,1483715911,3.5 out of 5 - 5 ratings,3.5,NDA18,NDA
Woodland Hospital,NVC23,HOS,Woodland Hospital,Rothwell Road,NULL,Kettering,Northamptonshire,NN16 8XF,1536414515,4.0 out of 5 - 52 ratings,4,NVC23,NVC
Woodthorpe Hospital,NVC40,HOS,Woodthorpe Hospital,748 Mansfield Road,Woodthorpe,Nottingham,Nottinghamshire,NG5 3FZ,1159209209,4.5 out of 5 - 56 ratings,4.5,NVC40,NVC
Worcestershire Royal Hospital,RWP50,HOS,Charles Hastings Way,Charles Hastings Way,NULL,Worcester,Worcestershire,WR5 1DD,1905763333,4.0 out of 5 - 157 ratings,4,RWP50,RWP
Worthing Hospital,RYR18,HOS,Lyndhurst Road,NULL,NULL,Worthing,West Sussex,BN11 2DH,1903205111,4.0 out of 5 - 115 ratings,4,RYR18,RYR
Wrightington Hospital,RRF53,HOS,NULL,Hall Lane,Appley Bridge,Wigan,Lancashire,WN6 9EP,1942244000,5.0 out of 5 - 65 ratings,5,RRF53,RRF
Wycombe Hospital,RXQ50,HOS,Wycombe Hospital,Queen Alexandra Road,NULL,High Wycombe,Buckinghamshire,HP11 2TT,1494526161,4.0 out of 5 - 120 ratings,4,RXQ50,RXQ
Wythenshawe Hospital,R0A07,HOS,Southmoor Road,Wythenshawe,NULL,Manchester,Greater Manchester,M23 9LT,1619987070,4.5 out of 5 - 166 ratings,4.5,R0A07,R0A
Yeatman Hospital,RDYFC,HOS,NULL,Hospital Lane,NULL,Sherborne,Dorset,DT9 3JU,1935813991,5.0 out of 5 - 17 ratings,5,RDYFC,RDY
Yeovil District Hospital,RA430,HOS,Higher Kingston,NULL,NULL,Yeovil,Somerset,BA21 4AT,1935475122,4.0 out of 5 - 75 ratings,4,RA430,RA4
